상권명,address_name,x,y
이북5도청사,서울 종로구 구기동 139,126.955981648226,37.6143308494494
사직공원(한국사회과학도서관),서울 종로구 사직동 304-28,126.964540960169,37.5736305305006
배화여자대학교(박노수미술관),서울 종로구 옥인동 168-2,126.966783450397,37.5813184655898
대신고등학교,서울 종로구 행촌동 171-1,126.96195552618747,37.57348556644165
세검정초등학교,서울 종로구 신영동 219-4,126.961170382956,37.6030955305115
독립문역 1번,서울 종로구 서린동,126.978678739891,37.5692262620098
세검정,서울 종로구 신영동 168-6,126.959697118686,37.6008858079759
부암동주민센터,서울 종로구 부암동 265-21,126.964061015983,37.5924142953596
자하문터널,서울 종로구 청운동 산 4-34,126.96529582862915,37.59109381053928
평창동서측,,,
청와대사랑채,서울 종로구 효자동 150,126.97323381287573,37.58267609971977
성곡미술관,서울 종로구 신문로2가 1-101,126.969780082012,37.5731706785274
체부동홍종문가옥,서울 종로구 체부동 158,126.970208488171,37.5775748488504
경복고등학교,서울 종로구 청운동 89-9,126.971816946579,37.5871437947775
경신고등학교,대구 수성구 범어동 100-5,128.637731422933,35.8554971024358
혜회동주민센터,,,
충신시장옆,,,
서울대병원,서울 종로구 연건동 28-21,126.99900375369114,37.5795346620418
정독도서관,서울 종로구 화동 2,126.982995455867,37.5814300334622
창덕궁,서울 종로구 와룡동 2-71,126.99099980677127,37.57964694739535
평창동동측,,,
성균관대학교,서울 종로구 명륜3가 53-21,126.99396747284503,37.58831649367718
서울국제고등학교,서울 종로구 명륜1가 1-27,126.995815089214,37.5916160076764
중앙고등학교,서울 종로구 계동 1,126.98684423018,37.584025386322
혜화역 1번,서울 종로구 동숭동 1-13,127.0019359806829,37.583125110211455
종로5가역 4번,서울 종로구 운니동 114-2,126.98765153437121,37.57674814641835
이화달팽이길,서울 종로구 이화동 9-244,127.00757346918172,37.576899015390765
동대문역 1번,서울 종로구 창신동 442-1,127.0106293000793,37.57179013955896
경향신문사,서울 중구 정동 22,126.96996094484199,37.568174705838274
동묘앞역 3번,서울 종로구 숭인동 81-39,127.01733098344533,37.573330047419006
수족관거리,서울 종로구 창신동,127.014303507845,37.5707337851724
동대문역 3번,서울 종로구 창신동 204-14,127.01219148794848,37.572123356760564
신설동역 12번,서울 종로구 숭인동 1304,127.023025798928,37.5760410680218
창신역 4번,서울 종로구 명륜4가 7,127.001159330141,37.5835143495346
창신역 1번,서울 종로구 창신동 442-1,127.0106293000793,37.57179013955896
회현역 1번,서울 중구 회현동1가 192-1,126.97982014368885,37.55932811749888
동묘앞역 2번,서울 종로구 숭인동 117,127.017478213466,37.5736273540219
창신1동주민센터,서울 종로구 창신동 401-3,127.01636821205338,37.57073531895121
중구회현체육센터(정화예술대남산캠퍼스),,,
남산케이블카,서울 중구 회현동1가 산 1-19,126.98403099725546,37.55658072049463
장충동주민센터,서울 중구 장충동1가 37-14,127.007859437008,37.5619118374246
관성묘,서울 중구 장충동2가 186-140,127.003123812902,37.560913753315
남산골공원옆,,,
동대문역사문화공원역 5번,서울 중구 충무로1가 24-1,126.98475668239352,37.56099299933937
충무초등학교,경남 통영시 정량동 232,128.430080836107,34.8482330876725
약수역 7번,서울 성동구 옥수동 301,127.016217284502,37.5428882122984
다산성곽길,서울 중구 장충동2가,127.004884483545,37.5542427094569
한양공고앞 교차로,서울 중구 신당동,127.011350460349,37.564913673499
청구역 3번,서울 중구 신당동 369-26,127.011373931935,37.5555090654739
장충초등학교,서울 중구 신당동 386-86,127.011308958263,37.5599221564598
장충단 고개,,,
청구역 1번,서울 중구 신당동 374-17,127.01043457722174,37.555401032508556
효창공원앞역 6번,서울 용산구 용문동 5-229,126.9609409536682,37.53935725401411
한강로동땡땡거리(은행나무길),,,
효창동주민센터,서울 용산구 효창동 255-5,126.961898879199,37.5424588083416
효창공원앞역 2번,서울 용산구 효창동 74-15,126.961574574253,37.5393844918901
황학동벼룩시장,서울 중구 황학동 161,127.017821256877,37.5690646630335
신당역 3번,서울 종로구 창신동 204-14,127.01219148794848,37.572123356760564
황학코아루아파트,서울 중구 황학동 882,127.02249773288362,37.5667428995018
성심여자고등학교,서울 용산구 원효로4가 1-1,126.953688900998,37.5344045364223
새남터성지,서울 용산구 이촌동 199-1,126.956857772522,37.5249704486718
효창공원앞역 5번,서울 마포구 공덕동 255-10,126.9517161261748,37.544291320594844
남정초등학교,경남 창원시 성산구 가음동 11,128.692040600908,35.2112655954675
배문고등학교,서울 용산구 서계동 259-3,126.964624580391,37.5500064240529
서울역 15번,서울 종로구 관수동 58,126.991460546794,37.5699486748659
남영역 1번,서울 용산구 갈월동 96-1,126.97124794697474,37.54165776306744
숙대입구,서울 용산구 갈월동 16-7,126.972118127373,37.5445952301115
삼광초등학교,서울 용산구 후암동 190-2,126.976525874238,37.5472991858342
삼각지역 14번,서울 용산구 한강로1가 121-3,126.97413561697168,37.535054099123656
삼각지역 3번,서울 용산구 한강로1가 296-1,126.972099699412,37.5333147040003
숙대입구역 1번,서울 용산구 갈월동 96-1,126.97124794697474,37.54165776306744
용산세무서,서울 용산구 한강로3가 65-342,126.968750414489,37.5232911216298
한강미주맨션아파트,서울 용산구 이촌동 302-48,126.969525386873,37.5203432431158
열정도,서울 용산구 원효로1가 44-11,126.969476804566,37.5396318708232
이촌동점보아파트,서울 용산구 이촌동 300-10,126.97869444616461,37.518029674831034
서울역 12번,서울 중구 입정동,126.992669634675,37.5682945282997
해방촌예술마을,서울 용산구 용산동2가,126.9817270104,37.5462549464597
해방촌 남동측,,,
서빙고역 1번,서울 용산구 서빙고동 241-84,126.98937806737393,37.51988358141656
오산고등학교,서울 용산구 보광동 168-4,126.999606324649,37.5235114956886
후암동주민센터,서울 용산구 후암동 244-109,126.978150463736,37.5486798277352
용산구청,서울 용산구 이태원동 34-87,126.99057555769706,37.53242563258956
경리단길북측,,,
이태원엔틱가구거리,서울 용산구 이태원동 131-44,126.994383719145,37.5335268984122
한국폴리텍대학서울정수캠퍼스,서울 용산구 보광동 238-2,126.996660309412,37.5288417776827
우사단길,서울 용산구 한남동 763-7,126.999873285391,37.5320818261115
리움미술관,서울 용산구 한남동 742-1,126.99911744955163,37.53833657002706
NH농협은행 보광동지점,서울 용산구 이태원동 123-26,126.99524689472926,37.53485591262266
경리단길남측,,,
서빙고동주민센터,서울 용산구 서빙고동 134,126.994638088433,37.5204623812845
유엔빌리지길,서울 용산구 한남동 1-320,127.010390886371,37.5341608794953
옥수터널,서울 성동구 옥수동 517-24,127.01653239501417,37.545339787886476
옥수역 6번,서울 성동구 옥수동 401-1,127.01705213122965,37.54186726210846
신금호역 4번,서울 성동구 금호동3가 1583,127.01548066699998,37.548444772817355
오산중학교,서울 용산구 보광동 168-4,126.999542971669,37.5239908287871
금호사거리,서울 성동구 금호동4가,127.025733072624,37.5480339301875
금호삼성래미안아파트,서울 성동구 금호동1가 1500,127.02736299736135,37.54910034615845
상왕십리역 6번,서울 성동구 행당동 1-137,127.03927418206949,37.56121540335636
행당역 2번,서울 성동구 도선동 35-1,127.03542617973874,37.561613059211716
한남힐사이드아파트,서울 용산구 한남동 726-111,127.00559885177071,37.542533298324585
한강진역 3번,서울 용산구 한남동 726-494,127.0019461846575,37.540174597537174
금동어린이공원,서울 성동구 금호동2가 1218,127.025605768362,37.5496972013309
서울독일학교,서울 용산구 한남동 4-13,127.01190295836,37.5373430710793
왕십리파출소,서울 성동구 홍익동 102-1,127.032657674498,37.5666684465705
청계천박물관,서울 성동구 마장동 527-4,127.03510702262219,37.57129886065509
상왕십리역 3번,서울 중구 신당동 99,127.0206795731417,37.56558094714453
성동구보건소,서울 성동구 홍익동 16-15,127.0332102312347,37.56709176048288
금북초등학교,서울 성동구 금호동1가 48-2,127.023495383346,37.5573399044792
마장역 3번,서울 성동구 마장동 809-2,127.04302325925579,37.565998387238395
사근동살곶이상점가,,,
뚝섬역교차로,서울 성동구 성수동1가,127.044508966536,37.5480860095393
서울숲역 1번,서울 성동구 성수동1가 656-1112,127.04608523821922,37.54795926504363
서울숲카페거리,서울 성동구 성수동1가 668-11,127.043028992489,37.5464440372535
응봉산,서울 성동구 응봉동,127.029834156041,37.5482528089186
왕십리역 9번,서울 성동구 행당동 270-3,127.03535788693051,37.56080218263591
한양대역 4번,서울 성동구 행당동 64,127.04326636695664,37.555780995295464
마장역 2번,서울 성동구 마장동 804,127.04281963199938,37.566196680376805
성원중학교,서울 성동구 성수동2가 333-17,127.052342674179,37.5392602112427
성원어린이공원,서울 성동구 성수동1가 13-21,127.050073444543,37.5502137414672
답십리역 6번,서울 성동구 용답동 69-1,127.05271268672561,37.56659812589572
성수동카페거리,서울 성동구 성수동2가 276-5,127.05639353022181,37.54243256842165
성수1가1동주민센터,서울 성동구 성수동1가 27-23,127.049651600526,37.542079700812
성수초등학교,경기 성남시 수정구 수진동 4786,127.127169646747,37.4348342297297
건대입구역 6번,서울 광진구 자양동 8-6,127.068297851068,37.5405603131469
자양4동주민센터,서울 광진구 자양동 63-1,127.066305179223,37.534074246934
송정체육공원,서울 성동구 송정동,127.067073855867,37.553520981035
성수119안전센터,서울 성동구 성수동2가 236-59,127.060646105419,37.5371659185169
서울교통공사,서울 성동구 용답동 223-3,127.05724745183834,37.56263793810078
성수2가3동주민센터,서울 성동구 성수동2가 299-240,127.0552277868,37.5482148305107
성동세무서,서울 성동구 송정동 67-6,127.062787304527,37.5485354123312
경수초등학교,서울 성동구 성수동2가 268,127.058331366781,37.5403566248381
화양사거리,서울 성동구 송정동 70-68,127.06745396761663,37.548341826991226
건대입구역 1번,서울 광진구 화양동 7-3,127.068759775125,37.54085286999077
뚝섬유원지역 1번,서울 광진구 화양동 7-3,127.068759775125,37.54085286999077
어린이대공원역 4번,서울 광진구 구의동 252-121,127.0846453021421,37.53804494727989
장안초등학교,부산 기장군 장안읍 기룡리 301-1,129.253694884815,35.3466016276355
자양한강도서관,서울 광진구 자양동 594,127.07760406988577,37.529219976856744
중곡1동주민센터,서울 광진구 중곡동 259-10,127.080050830103,37.5606668136684
광진정말공원,서울 광진구 자양동,127.078405849389,37.5332198923109
광진구청,서울 광진구 자양동 870,127.08775364792673,37.536282124049194
신자초등학교,서울 광진구 자양동 591,127.075560799657,37.5302664634064
능동우편취급국,서울 광진구 군자동 48-45,127.075627360521,37.5558439899784
어린이대공원역 3번,서울 성동구 성수동2가 276-5,127.05700233411247,37.54396757909408
세종대학교,서울 광진구 군자동 98,127.0742595815513,37.550638892935346
군자역 5번,서울 광진구 구의동 96,127.089357588483,37.552024979356
중곡1동 마을마당,서울 광진구 중곡동 248-29,127.076920087857,37.5627231668153
자양동우체국,서울 광진구 자양동 636-7,127.08055479200472,37.53150564324543
구의역 4번,서울 광진구 구의동 252-121,127.0846453021421,37.53804494727989
중곡3동주민센터,서울 광진구 중곡동 684,127.080208938329,37.5687900862674
중곡어린이공원,서울 광진구 중곡동 232-44,127.079240155104,37.5646605762138
아차산역 5번,서울 광진구 구의동 96,127.089357588483,37.552024979356
구의1동주민센터,서울 광진구 구의동 237-6,127.08567541115316,37.54241225103491
용마초등학교,경기 용인시 처인구 마평동 675-4,127.214779907365,37.2371225491296
대원고등학교,서울 광진구 중곡동 176-124,127.089529351024,37.5631647765463
광진경찰서,서울 광진구 구의동 254-32,127.08396170505674,37.54292164557882
중곡역 3번,서울 광진구 중곡동 273-1,127.0842582182318,37.56608427905653
군자역 4번,서울 광진구 중곡동 272-12,127.08008327371346,37.55714028984629
동대부여고,서울 광진구 구의동 238-1,127.08702519396182,37.5432654113521
성자초등학교,서울 광진구 자양동 662,127.083133006516,37.5313425773203
광진초등학교,서울 광진구 구의동 60-44,127.091443509336,37.5475832631735
구남초등학교,부산 북구 구포동 1076-1,128.99357937919567,35.200306128119806
중곡4동주민센터,서울 광진구 중곡동 62-24,127.089447499249,37.5590779184973
국립정신건강센터,서울 광진구 중곡동 30-1,127.08572847964055,37.56503626343099
성동초등학교,부산 남구 문현동 497,129.069141832851,35.1437420455887
동의초등학교,서울 광진구 구의동 4-5,127.099218635728,37.5534118494145
광나루역 1번,서울 광진구 광장동 238,127.10361905709489,37.545499107703336
광진정보도서관,서울 광진구 광장동 112,127.11060915357692,37.55106994644599
신설동역 9번,서울 동대문구 신설동 92-34,127.026262745386,37.5740401842108
용두사거리,경기 고양시 덕양구 용두동,126.88185552283,37.6302958625603
아차산역 1번,서울 광진구 구의동 94,127.0897879837475,37.552321982157096
해오름공원,서울 광진구 중곡동 100-16,127.092065955541,37.5568306213216
푸른동산공원,서울 광진구 구의동 227-13,127.091098359022,37.5429271675993
종암초등학교,서울 동대문구 제기동 1157,127.03141910782,37.5822055353738
용두초등학교,광주 북구 신용동 642-1,126.87069557840572,35.21506138033951
제기동역 6번,서울 동대문구 용두동 237-10,127.03348678668524,37.57802976150809
용두희망어린이공원,서울 동대문구 용두동 715,127.026739260651,37.5801956703274
장로회신학대학교,서울 광진구 광장동 353,127.10392551638647,37.5494307957574
용두동신동아아파트,서울 동대문구 용두동 779,127.03231618087726,37.572698001958706
한국의류시험연구원,경기 안양시 만안구 안양동 200-10,126.936910292369,37.3860793675902
동의보감타워,서울 동대문구 용두동 787,127.03767421749981,37.57780054786625
홍파초등학교,서울 동대문구 제기동 678,127.039391444512,37.5861567023354
고려대역 4번,서울 동대문구 제기동 136-207,127.03658309613708,37.58976878454596
동대문중앙새마을금고본점,서울 동대문구 제기동 504,127.04189632125637,37.58292668045488
제기동역 1번,서울 성동구 행당동 168-151,127.037748381559,37.5610050678131
동대문경찰서,서울 동대문구 청량리동 229,127.045762797538,37.5850804205685
전농119안전센터,서울 동대문구 전농동 643-116,127.046015533642,37.5763046435979
전농1동주민센터(전농시장),,,
고려대역 6번,서울 동대문구 제기동 136-237,127.03589219258824,37.58929147069392
고대앞사거리,서울 성북구 안암동5가 40-11,127.032820283549,37.5864254062161
세종대왕기념관교차로,서울 동대문구 청량리동,127.042510213243,37.5913597529459
동대문구청,서울 동대문구 용두동 39-9,127.039747394094,37.5744184359353
떡전교사거리,서울 동대문구 청량리동,127.05147846984,37.5856871375435
홍릉시장,서울 동대문구 제기동 1019,127.03913636936471,37.57903713704342
경희대삼거리,서울 동대문구 회기동,127.053726601333,37.588280994727
텃골근린공원,서울 동대문구 전농동 690-1,127.05173781689787,37.57761592401472
시립대앞사거리,서울 동대문구 전농동 25-2,127.057780769247,37.5775752791107
간데메공원,서울 동대문구 답십리동 471,127.048721478311,37.5733627114637
답십리초등학교,서울 동대문구 답십리동 274,127.055473841426,37.5687250125482
경희대후문,서울 동대문구 회기동 1-5,127.05412773906,37.5981142355862
전농중학교,서울 동대문구 전농동 54-6,127.059704137564,37.5818089929221
회기역 1번,서울 동대문구 휘경동 317-112,127.057609152367,37.5899225737612
시조사삼거리,서울 동대문구 회기동,127.053726601333,37.588280994727
답십리 장령당공원,서울 동대문구 답십리동 1004-4,127.053513997066,37.5696557444787
서울시립대,서울 동대문구 전농동 694,127.05773316246166,37.584828300773886
전곡마을마당공원,서울 동대문구 전농동,127.054500170717,37.5808672689989
청량초등학교,울산 울주군 청량읍 덕하리 412-2,129.297518628951,35.4866981271489
답십리사거리,서울 동대문구 답십리동,127.057451139754,37.5728974765472
삼육보건대학교,서울 동대문구 휘경동 29-1,127.06565297133432,37.58894980703882
의릉,서울 성북구 석관동 409,127.057030776272,37.6035458417642
외대앞역 1번,서울 동대문구 이문동 360-5,127.06286741484175,37.59538891055149
자동차부품상가,서울 동대문구 답십리동 952-4,127.0601323398642,37.5652331751254
회기역 2번,서울 동대문구 휘경동 267-140,127.0585035137813,37.589768965179985
군자초등학교,경기 시흥시 거모동 1582-1,126.78743979099,37.3438993746289
답십리공원,서울 동대문구 답십리동 산 2-1,127.06326315945226,37.574643335754736
장안근린공원,서울 동대문구 장안동 300,127.07154666337497,37.57751728286913
외대앞역 2번,서울 동대문구 이문동 360-9,127.06326376348926,37.59542473842961
장평중학교,서울 동대문구 장안동 352,127.070766569089,37.5666445463663
장안현대홈타운1차아파트,서울 동대문구 장안동 336,127.074496157311,37.5700227869319
촬영소사거리,서울 동대문구 장안동,127.06631682126,37.5727594819018
장안1동주민센터,서울 동대문구 장안동 395-3,127.0664403201914,37.567787720837494
신묵초등학교,서울 중랑구 묵동 246-12,127.075348541817,37.6071106961622
태릉시장 특화거리,서울 중랑구 중화동 314-1,127.077880661586,37.599329002659
먹골역 5번,서울 중랑구 묵동 189-6,127.07776121799688,37.609687762570694
메가박스 상봉,서울 중랑구 상봉동 130-3,127.07477725968386,37.593039388039465
동대부고,서울 동대문구 장안동 328,127.074626416845,37.5780487645908
중랑역 1번,서울 중랑구 묵동 176-21,127.07836912536926,37.61158484324342
중랑역 4번,서울 중랑구 상봉동 160-22,127.085807934511,37.5948248573688
중랑역 2번,서울 중랑구 상봉동 101-11,127.086124406093,37.5962860346635
면목5동주민센터,서울 중랑구 면목동 175-18,127.07948445767,37.5857905325381
중화역 4번,서울 중랑구 중화동 50-2,127.078955125072,37.603443111902
KB국민은행 중화동지점,서울 중랑구 중화동 301-29,127.07987788467702,37.59796446876831
중랑노인종합복지관,서울 중랑구 면목동 178-8,127.077811514973,37.5883865058501
월드순복음교회,서울 중랑구 상봉동 128-28,127.079049107497,37.5937988432783
먹골역 1번,서울 중랑구 묵동 176-21,127.07836912536926,37.61158484324342
먹골파출소,서울 중랑구 묵동 120,127.081562909016,37.6146027928551
중곡초등학교,서울 중랑구 면목동 380,127.083353014014,37.5744894041688
오거리공원,서울 중랑구 면목동 351,127.084324713829,37.5768745469786
화랑대역 7번,서울 노원구 공릉동 678-5,127.07607049990334,37.617653603112934
상봉역 7번,서울 중랑구 상봉동 314-69,127.085156894478,37.5978490551179
중화역 1번,서울 중랑구 묵동 176-21,127.07836912536926,37.61158484324342
면목2동체육관,서울 중랑구 면목동 146-1,127.081108047686,37.587901354767
장안제일시장,서울 중랑구 면목동 160-1,127.080991287512,37.584636237407
장안중학교,서울 중랑구 중화동 288-26,127.081289752229,37.6008971304595
상봉역 4번,서울 중랑구 상봉동 160-22,127.085807934511,37.5948248573688
사가정역 1번,서울 중랑구 면목동 496-1,127.088464638031,37.5816503878756
면목역 3번,서울 중랑구 면목동 119-1,127.085900375702,37.5885574909027
상봉역 3번,서울 중랑구 면목동 119-1,127.085900375702,37.5885574909027
면목역 2번,서울 중랑구 상봉동 101-11,127.086124406093,37.5962860346635
면동초등학교,서울 중랑구 면목동 551,127.086725570352,37.585453869147
사가정역 4번,서울 중랑구 면목동 630,127.08876896491232,37.580514907676154
용마문화복지센터,서울 중랑구 면목동 50-17,127.095187239227,37.5869970562586
망우3동주민센터,서울 중랑구 망우동 529-2,127.09491720421856,37.59189867085954
면목역 1번,서울 중랑구 면목동 496-1,127.088464638031,37.5816503878756
혜원여고,서울 중랑구 망우동 519,127.09699546253907,37.593168280515954
면목동우체국,서울 중랑구 면목동 458-78,127.08881219644972,37.58259887281839
신내역 1번,서울 중랑구 망우동 618-2,127.10701998397293,37.60677087930767
망우역 1번,서울 중랑구 망우동 618-2,127.10701998397293,37.60677087930767
망우역 2번,서울 중랑구 상봉동 101-11,127.086124406093,37.5962860346635
서일대학교,서울 중랑구 면목동 49-3,127.09775408287538,37.58622460979655
하나은행 망우동지점,서울 중랑구 망우동 486-1,127.10003514289356,37.59951953220311
러스크서울병원,서울 중랑구 망우동 207-2,127.104326678267,37.600142906146
북정마을,서울 성북구 성북동 217-44,126.99249287380292,37.592639370079134
신내1동주민센터,서울 중랑구 신내동 448-1,127.099496657032,37.6058746703146
장스여성병원,서울 중랑구 망우동 488-4,127.0979074499184,37.599586187733664
신내IC북측,,,
정릉북한산국립공원입구,,,
홍대부중,서울 성북구 성북동 151,127.00272774191963,37.59372166853255
한성대입구역 5번,서울 성북구 성북동1가 50-2,127.00566118730129,37.588738176599854
망우본동주민센터,서울 중랑구 망우동 340-18,127.1014146483731,37.60053196917723
국민대학교앞,서울 성북구 정릉동 865-7,126.99573253080186,37.60972411630714
정릉3동주민센터,서울 성북구 정릉동 675-1,127.003748670501,37.607965402468565
성북초등학교앞,서울 성북구 성북동,126.997450059529,37.5928918590119
삼선중학교,서울 성북구 동소문동1가 140-1,127.00774475460221,37.59115451980146
정릉역 2번,서울 성북구 정릉동 140-9,127.013186246181,37.6027552011541
한성대입구역 3번,서울 성북구 삼선동1가 1-2,127.00632915780938,37.5881524974864
동구여중,서울 성북구 성북동 168-275,127.007731488322,37.59425753692
성신여대입구역 4번,서울 종로구 명륜4가 7,127.001159330141,37.5835143495346
북한산보국문역 2번,서울 성북구 정릉동 297-5,127.00766769758872,37.61261431745417
북한산보국문역 1번,서울 성북구 정릉동 289-94,127.00848310156466,37.6120196089561
서경대학교,서울 성북구 정릉동 산 16-1,127.01335157441319,37.61537353959452
정릉우체국,서울 성북구 정릉동 414-3,127.01153332385535,37.6056989091566
솔숲어린이공원,서울 성북구 정릉동 170-10,127.015052962115,37.6049317702278
삼선동주민센터,서울 성북구 삼선동4가 349-1,127.0146515622994,37.59082770536046
정릉역 1번,서울 성북구 정릉동 966-330,127.01349885475692,37.603045284714725
경동고등학교,서울 성북구 삼선동3가 43-1,127.014560034058,37.585967762623
보문역 8번,서울 성북구 보문동2가 106-1,127.019133883179,37.5851057604944
성신여대입구역 7번,서울 성북구 동선동4가 95-1,127.017283550274,37.5933987805458
길음역 7번,서울 성북구 길음동 531-33,127.02432550960376,37.604249975752076
길음역 8번,서울 성북구 길음동 1076-2,127.025050404041,37.6045840914534
대광초등학교,서울 성북구 보문동7가 111,127.023692382354,37.5790106131615
보문역 4번,서울 종로구 명륜4가 7,127.001159330141,37.5835143495346
성신여대입구역 1번,서울 성북구 동선동1가 1-33,127.017029768738,37.5927645191535
안암역 3번,서울 성북구 안암동5가 146-1,127.02960701215181,37.58622082953828
보문역 5번,서울 성북구 보문동1가 147-68,127.01980193760707,37.5853579283758
미아초등학교,서울 성북구 길음동 1168,127.021636670411,37.6108628624057
안암역 2번,서울 성북구 안암동5가 101-142,127.02959576507138,37.58641004086593
숭곡초등학교,서울 성북구 하월곡동 84-86,127.032798257059,37.6084708645409
종암아이파크2차,서울 성북구 종암동 131,127.03172420988044,37.5968555901075
종암중학교,서울 성북구 종암동 32-3,127.03228886702,37.5933307580726
종암경찰서,서울 성북구 종암동 3-1260,127.0324103972117,37.60202348733786
KB국민은행 종암동지점,서울 성북구 종암동 8-2,127.03625351554156,37.594241410546395
종암동주민센터,서울 성북구 종암동 16-8,127.035217428043,37.5990169781263
KT월곡지사,서울 성북구 하월곡동 67-47,127.035944106639,37.6030640089355
장위동성당,서울 성북구 장위동 233-53,127.048239662644,37.6126029050454
상월곡역 2번,서울 성북구 상월곡동 26-1,127.050193324845,37.6074412241035
상월곡역 3번,서울 성북구 상월곡동 26-1,127.05054430254334,37.60728790607424
장위1동주민센터,서울 성북구 장위동 225-100,127.04373049406227,37.6140390361687
상월곡역 1번,서울 노원구 월계동 46-1,127.06519800600319,37.61512653230663
돌곶이역 1번,서울 노원구 월계동 46-1,127.06519800600319,37.61512653230663
장곡초등학교,경기 시흥시 장곡동 797,126.782035845841,37.3815235695069
돌곶이역 5번,서울 성북구 석관동 384-7,127.065895651849,37.6137764640871
석관중앙교회,서울 성북구 석관동 291-4,127.061678018334,37.60857102749
우리은행체육관,서울 성북구 장위동 76-3,127.051445315877,37.6164685938056
석계역 7번,서울 성북구 석관동 375-29,127.0651826855858,37.614443591551556
돌곶이역 8번,서울 성북구 석관동 349-8,127.05675297974227,37.61054666514437
인수초등학교,서울 강북구 수유동 551-19,127.009680856107,37.6428999322418
돌곶이역 3번,서울 성북구 장위동 64-100,127.05682139991339,37.611159304776834
석관고등학교,서울 성북구 석관동 77-1,127.066354272149,37.6098514996139
인수중학교,서울 강북구 수유동 551,127.00971722948,37.6437864976942
아카데미하우스,서울 강남구 대치동 988-7,127.062140354022,37.4998455909102
북한산우이역 2번,서울 강북구 우이동 16-27,127.01248967267536,37.66297896918368
무너미어린이공원,서울 강북구 수유동 281-2,127.01275425862,37.6460963312878
국립4.19민주묘지,서울 강북구 수유동 580-1,127.007655529176,37.648576279141
솔밭공원역 2번,서울 강북구 우이동 16-27,127.01248967267536,37.66297896918368
국립재활원,서울 강북구 수유동 520,127.01058220054608,37.63887785974017
화계역 2번,서울 강북구 수유동 472-678,127.017379046195,37.6339756946201
수유북부시장옆,,,
화계중학교,서울 강북구 수유동 491-28,127.009974049893,37.6324160456611
수유1동주민센터,서울 강북구 수유동 605-412,127.017609238183,37.6300581737258
4.19민주묘지역 2번,서울 강북구 우이동 16-27,127.01248967267536,37.66297896918368
삼각산119안전센터,서울 강북구 미아동 1353-6,127.015495461683,37.6198556934666
가오리역 2번,서울 도봉구 창동 135-14,127.0467904684602,37.65320370678639
강북문화예술회관,서울 강북구 수유동 360-10,127.013288149981,37.6408453366338
수유동우체국,서울 강북구 수유동 317-5,127.01595390334386,37.64492286100467
덕수교,경기 고양시 덕양구 동산동 381,126.89827725259036,37.651298689128375
가오리역 1번,서울 강북구 번동 386-16,127.02627404613166,37.638379867088865
삼양사거리역 2번,서울 강북구 미아동 837-2077,127.01362657905885,37.62033524956377
수유시장옆,,,
삼양사거리역 1번,서울 강북구 미아동 745-155,127.020774139925,37.6207666817977
인수동 우편취급국,서울 강북구 수유동 46-35,127.020084906746,37.6356078507377
수유초등학교,서울 강북구 수유동 55-5,127.020233197306,37.6309659469803
우이천 계성교,서울 도봉구 쌍문동 413-1,127.022447428156,37.6479824458141
송천동주민센터,서울 강북구 미아동 860-56,127.023867953194,37.6183082018123
미아역 5번,서울 강북구 미아동 304-3,127.02620493739731,37.62548497203119
광산사거리,서울 강북구 수유동,127.022371213557,37.64322256272
미아역 8번,서울 강북구 미아동 194-1,127.0255678289775,37.627397005700765
송천초등학교,경북 안동시 송천동 941-1,128.792310087544,36.5462339145879
성신여대운정그린캠퍼스,서울 강북구 미아동 147,127.0272291016319,37.632018693517864
강북구청,서울 강북구 수유동 192-59,127.025538071854,37.6397513275933
도봉세무서,서울 강북구 미아동 327-5,127.028267848441,37.6197452065202
삼양입구사거리,서울 강북구 미아동,127.029848054742,37.6171103285574
송중초등학교,서울 강북구 미아동 94-1,127.03160597129,37.6171495143018
서울북부고용노동지청,서울 강북구 번동 432-5,127.034260002735,37.6348405505724
강북중학교,서울 강북구 수유동 694,127.026305887171,37.6451390450464
수유역 2번,서울 도봉구 창동 655-15,127.034193067454,37.6470002571093
미아사거리역 3번,서울 강북구 미아동 35-21,127.030412486151,37.6124394598825
수송초등학교,서울 강북구 번동 456,127.033640331537,37.6374535861188
송중동주민센터,서울 강북구 미아동 87-141,127.033793824171,37.6161289893513
KT&G 북부지사,서울 강북구 번동 430-12,127.034672677944,37.6354567040391
솔밭공원역 1번,서울 강북구 우이동 4-28,127.012625751142,37.6634204354588
덕성여대시반거리,서울 도봉구 쌍문동 422-7,127.014270260432,37.6515164734828
강북문화정보도서관,서울 강북구 번동 산 27-108,127.03601125702522,37.62489854721974
번동주공2단지,서울 강북구 번동 241,127.04533962877792,37.62656936510693
도봉우체국,서울 도봉구 쌍문동 380-28,127.027241708544,37.64793098108259
방학초등학교,서울 도봉구 방학동 302,127.031852583241,37.6641916541734
쌍문초등학교,서울 도봉구 쌍문동 360-4,127.024670832237,37.6485595321724
연산군묘,서울 도봉구 방학동 산 77,127.022585202059,37.66140075096
한일병원,서울 도봉구 쌍문동 388-1,127.02875836493826,37.64634398903082
발바닥공원,서울 도봉구 방학동 270-2,127.032013855648,37.6596867039654
국민은행방학지점,서울 도봉구 방학동 720-33,127.04706499892602,37.66802834668651
샘말어린이공원,서울 도봉구 방학동 611-5,127.031736554374,37.6685199964137
쌍문역1번(쌍리단길),,,
도봉산입구,서울 도봉구 도봉동 441-1,127.03480090868,37.6771793483226
신한은행 방학동지점,서울 도봉구 방학동 691-7,127.03686616324,37.663172085201
방학중학교,서울 도봉구 방학동 313,127.031381701554,37.6656297458357
쌍문2동우체국,서울 도봉구 쌍문동 646,127.03755974892864,37.65635413839552
창2동주민센터,서울 도봉구 창동 632-73,127.03565663863523,37.64137768355875
도봉구민회관,서울 도봉구 창동 303,127.038498100679,37.6541779636057
도봉구 정병원,서울 도봉구 방학동 704-37,127.042556265057,37.6662073760604
도봉구보건소,서울 도봉구 쌍문동 565,127.038844549549,37.6579151241786
신창초등학교,광주 광산구 신창동 1145,126.840896750619,35.1978713656957
방학역 1번,서울 도봉구 방학동 705-39,127.04408003658234,37.66890885672985
방학1동주민센터,서울 도봉구 방학동 687-27,127.040679390304,37.6642357913442
도봉산역 1번,서울 도봉구 도봉동 298-4,127.04586062973665,37.68906307050629
도봉역 2번,서울 도봉구 도봉동 637-37,127.04521883185838,37.677710995679824
방학역 2번,서울 도봉구 창동 135-14,127.0467904684602,37.65320370678639
도봉역 3번,서울 도봉구 방학동 716-1,127.045041936957,37.6663677285931
가인초등학교,서울 도봉구 창동 224-20,127.04312944541253,37.659766053845246
창동역 2번,서울 도봉구 창동 135-14,127.0467904684602,37.65320370678639
누원고등학교,서울 도봉구 도봉동 646,127.050264079763,37.6855889090898
수락산역 4번,서울 노원구 상계동 1118-77,127.055159802549,37.6769048941454
창동중학교,서울 도봉구 방학동 722-8,127.049600641568,37.6631223687219
노원초등학교,서울 노원구 상계동 1014,127.058426190964,37.6732777809255
수락산디자인거리,서울 노원구 상계동 1007-4,127.058862461948,37.6745425390706
광운대역 1번,서울 노원구 월계동 46-1,127.06519800600319,37.61512653230663
월계역 3번,서울 노원구 월계동 263-6,127.05871764587523,37.63171890955757
광운대학교 남단,,,
석계역 2번,서울 노원구 월계동 25-2,127.06656520451027,37.61524469948886
상계초등학교,서울 노원구 상계동 402-1,127.066121814106,37.6593950138213
석계역 1번,서울 노원구 월계동 46-1,127.06519800600319,37.61512653230663
노원역 9번,서울 노원구 상계동 602-5,127.062714737868,37.6562866851277
계상초등학교,서울 노원구 상계동 447-1,127.068101501408,37.6628932989011
상계5동주민센터,서울 노원구 상계동 167-2,127.069407204902,37.6629682202442
공릉동 국수거리,서울 노원구 공릉동 572-4,127.072603015282,37.6219377310565
상계2동주민센터,서울 노원구 상계동 385-1,127.06788576273141,37.65747582178574
대진고등학교,서울 노원구 하계동 55,127.074790580904,37.6380077033632
공릉역 2번,서울 노원구 공릉동 395-1,127.07329168202,37.6253588035305
중계초등학교,서울 노원구 중계동 449-2,127.07347192596312,37.65770402709893
상계역,서울 노원구 상계동 156-203,127.073421632239,37.660720544722
태릉입구역 4번,서울 노원구 공릉동 617-5,127.075369696699,37.6190956332983
서울과학기술대,서울 노원구 공릉동 172,127.08027896385352,37.631881000815284
당고개역 2번,서울 노원구 상계동 1405-2,127.07881009043012,37.66987283269848
상계제일중학교,서울 노원구 중계동 132,127.077842265502,37.6613411893883
경춘선숲길 우측,서울 성북구 석관동 384-37,127.06142112610371,37.612938255387434
영신여고,서울 노원구 중계동 118,127.08322577907374,37.652341209797875
화랑대철도공원,서울 노원구 공릉동 29-4,127.09280384607884,37.62429902505934
당고개역 5번,서울 노원구 상계동 1393-5,127.079684122678,37.6710525290215
수색성당,서울 은평구 증산동 221-1,126.901892766807,37.5792497290076
내를건너서숲으로도서관,서울 은평구 신사동 산 80-66,126.90802704867765,37.59164512011434
구산초등학교,경남 김해시 구산동 408,128.874250759708,35.2534099250982
증산역 3번,서울 은평구 증산동 199-8,126.909630488765,37.5840455867698
증산역 4번,서울 은평구 증산동 199-8,126.91007154538312,37.58445137043541
상신초등학교입구,서울 은평구 신사동 산 46-1,126.90563871520064,37.59820155052485
시립서북병원,서울 은평구 역촌동 산 31-1,126.90440234248578,37.60425070555974
새절역 3번,서울 은평구 신사동 352-2,126.913562005036,37.5913285501361
신사1동주민센터,서울 은평구 신사동 29-2,126.911769905814,37.5977927383244
선정중학교,서울 은평구 갈현동 227-5,126.908225022462,37.6185199965323
역촌노인복지관,서울 은평구 역촌동 67-9,126.911387362684,37.6033533648698
선일여고,서울 은평구 갈현동 240-1,126.91292950371592,37.619126322302925
응암역 2번,서울 은평구 대조동 179-49,126.922685675344,37.6068553456714
구산보건지소,서울 은평구 구산동 17-33,126.91278415824438,37.609736925272195
예일여고,서울 은평구 구산동 8-3,126.915192977684,37.6108451854676
구산역 4번,서울 은평구 갈현동 530-9,126.917162612457,37.6117836128695
갈현건영아파트,서울 은평구 갈현동 541-1,126.91340063318626,37.628953732928906
응암3동주민센터,서울 은평구 응암동 583-22,126.915734945868,37.5922419251497
새절역 2번,서울 은평구 대조동 179-49,126.922685675344,37.6068553456714
연신내역 5번,서울 은평구 대조동 185-12,126.92106275667395,37.61866983653273
구산역 2번,서울 은평구 대조동 179-49,126.922685675344,37.6068553456714
은평요양병원,서울 은평구 갈현동 390-19,126.91962734387663,37.6263074367279
연신내역 7번,서울 은평구 갈현동 389-5,126.92050667372843,37.619669559553515
응암정보도서관,서울 은평구 응암동 747-1,126.92062062409839,37.58705649796877
응암역 3번,서울 은평구 역촌동 43-13,126.91589680094792,37.59934004943211
응암동우체국,서울 은평구 응암동 576-37,126.91766009220675,37.590984598186516
연신내역 4번,서울 은평구 대조동 227-2,126.92151606002489,37.618453901827934
신진과학기술고등학교,서울 은평구 응암동 114-1,126.91811477073857,37.59866946999502
구산역 1번,서울 은평구 대조동 207-16,126.91749137084527,37.61150453665128
백련산해모로아파트,서울 은평구 응암동 768,126.92186663701874,37.59624924857225
역촌역 2번,서울 은평구 대조동 179-49,126.922685675344,37.6068553456714
세명컴퓨터고등학교,서울 은평구 불광동 445-35,126.923275768708,37.6277460378888
연신내역 3번,서울 은평구 불광동 308-1,126.92181038877568,37.618616275016166
불광역 7번,서울 은평구 대조동 13-1,126.92904434473213,37.610836306760305
은평세무서,서울 은평구 녹번동 7,126.933955867093,37.6087758924169
연신내역 2번,서울 은평구 대조동 179-49,126.922685675344,37.6068553456714
응암1동주민센터,서울 은평구 응암동 96-3,126.926786873557,37.6006969911228
연신초등학교,부산 연제구 연산동 302-1,129.093161410742,35.1922656360506
역촌역 3번,서울 은평구 녹번동 144-64,126.9231821006168,37.606480858168304
연신내우체국,서울 은평구 불광동 123-1,126.9275378561569,37.6226806816111
연천초등학교,부산 연제구 연산동 378-11,129.100491806687,35.1861946739897
불광역 8번,서울 은평구 불광동 265-1,126.9294516449381,37.61128704542778
우리은행응암동지점,서울 은평구 응암동 93,126.92725062967119,37.60124688208589
은평구청,서울 은평구 녹번동 84,126.92893871656369,37.60281743572421
불광역 3번,서울 은평구 대조동 15-1,126.93099405767587,37.609008454971494
북가좌초등학교,서울 서대문구 북가좌동 376-17,126.907659289826,37.5777082752594
녹번동근린공원,서울 은평구 녹번동 산 27,126.93185185285346,37.60353994592752
불광중학교,서울 은평구 불광동 173,126.932179296878,37.6233150325635
증산3교남측,,,
하나고등학교,서울 은평구 진관동 산 103-27,126.936993952672,37.6416041077403
모래내우체국,서울 서대문구 북가좌동 424-29,126.91227789892469,37.57598008705025
가좌역 3번,서울 마포구 서교동 345-19,126.923468604935,37.5545171391794
북가좌2동주민센터,서울 서대문구 북가좌동 334-5,126.9140750550396,37.58432190660742
증산역 1번,서울 은평구 증산동 199-7,126.91027550920938,37.584307366777786
남가좌동현대아파트,서울 서대문구 남가좌동 376,126.9202135771335,37.5748720882277
명지대학교교회,서울 서대문구 홍은동 399-1,126.925074816142,37.5824670482003
연가초등학교,서울 서대문구 남가좌동 364-6,126.917795708143,37.5798925701536
연희임광아파트,서울 서대문구 연희동 738,126.92712498386997,37.56518725441301
연희어린이공원,서울 서대문구 연희동 446-182,126.921499107981,37.5677532875881
남가좌파출소,서울 서대문구 남가좌동 336-21,126.924062385946,37.5760693452914
홍남교남측,,,
명지대학교,서울 서대문구 남가좌동 50-3,126.92282415743652,37.580234738358605
서연중학교,서울 서대문구 연희동 267-1,126.927470594338,37.5682904965353
홍연시장,,,
연희대우아파트앞,,,
연희초등학교,서울 서대문구 연희동 88-1,126.933903400976,37.5695016071591
연희파출소,서울 서대문구 연희동 86-12,126.932874895907,37.570279486769
연희지하차도,서울 서대문구 연희동 151-32,126.93433623824177,37.57674314380743
서대문소방서,서울 서대문구 연희동 76-12,126.936028277351,37.5732220853166
서대문우체국,서울 서대문구 창천동 98-3,126.93209109147989,37.560843809081966
홍은중학교,서울 서대문구 홍은동 183,126.935314096497,37.5927191908502
정원여중,서울 서대문구 홍은동 산 11-141,126.933422893275,37.5853912694954
경의중앙 신촌역,서울 서대문구 신촌동 74-12,126.94208931819857,37.55967513765615
서대문구보건소별관,서울 서대문구 홍은동 425-3,126.93644565983867,37.58292962053666
홍제역 3번,서울 서대문구 홍제동 161-1,126.94467930282585,37.58816673332487
홍제성원아파트,서울 서대문구 홍제동 456,126.942884759614,37.58366992422345
홍제역 4번,서울 서대문구 홍제동 161-1,126.943387764195,37.5892202821115
홍은종합사회복지관,서울 서대문구 홍은동 48-20,126.94641202258632,37.59549079547053
연희세브란스병원,서울 서대문구 신촌동 134,126.94096340991969,37.56225233153921
봉원사,서울 서대문구 봉원동 26,126.947815531886,37.5720097391013
홍제역 2번,서울 서대문구 홍제동 27-1,126.950688576636,37.5822048230189
서울여자간호대학교,서울 서대문구 홍제동 287-89,126.947643790396,37.5974176676364
홍제3동주민센터,서울 서대문구 홍제동 7-13,126.949743382569,37.5937821789907
아현역 2번,서울 서대문구 북아현동 135-5,126.95646096742098,37.55758288984291
아현역 1번,서울 서대문구 창천동 30-13,126.93624367728,37.5555815985936
충정로역 7번,서울 서대문구 충정로3가 41-8,126.962220580845,37.5597112264187
영천시장입구,서울 서대문구 영천동 341-10,126.96266831410814,37.56970341646108
경기대학교,서울 서대문구 충정로2가 67-13,126.962122732909,37.5651964618968
돈의문센트레빌아파트입구,서울 서대문구 냉천동 261,126.96158347274464,37.5661405314954
망원나들목체육관,서울 마포구 망원동 460-5,126.90081845272951,37.552752350289644
충정로현대아파트,서울 서대문구 충정로2가 185-15,126.96320555368209,37.56368673466093
충정로역 3번,서울 마포구 아현동 267-9,126.95640460800544,37.55719003423211
미근동,서울 서대문구 미근동 31-4,126.967056973717,37.5643528073934
동교초등학교,서울 마포구 망원동 426-5,126.902354960202,37.5582100705873
중암중학교,서울 마포구 중동 63,126.90396227446432,37.57216601228331
망리단길,서울 마포구 망원동,126.905914457472,37.5536575185624
마포구청역 7번,서울 마포구 성산동 350-8,126.90317054387728,37.562912142158304
마포구청역 1번,서울 마포구 성산동 590-1,126.90294966596663,37.565659097470345
KB국민은행 망원동지점,서울 마포구 서교동 490,126.91319016092096,37.550760977767965
성서초등학교,부산 부산진구 범천동 851-6,129.061976260159,35.145511566853
양화대교북단,서울 마포구 합정동 345-1,126.908679285249,37.5471076309493
성미산체육관,서울 마포구 성산동 산 12-1,126.91201198551614,37.56240909845097
합정역 8번,서울 마포구 합정동 383-36,126.91284099833057,37.549341648390936
마포구청역 4번,서울 마포구 성산동 279-1,126.90441590709788,37.562651868066666
가좌역 2번,서울 마포구 서교동 392-4,126.915530001641,37.5511483020045
새터산,서울 마포구 성산동 산 37-1,126.905640331713,37.5664226200046
망원역 1번,서울 마포구 서교동 441-21,126.910366038667,37.5560071791805
절두산순교성지,서울 마포구 합정동 96-1,126.911846765697,37.5441295338349
홍익지구대,서울 마포구 서교동 491,126.913367706775,37.5518468107755
홍대부속여중고앞,,,
성산중학교,서울 마포구 합정동 365-1,126.915929994498,37.5476680309745
연트럴파크(연남동주민센터),서울 마포구 연남동 250-9,126.92202094270864,37.5644767117043
경성고등학교,서울 마포구 연남동 369-1,126.918859660504,37.5634050990052
상수역 4번,서울 마포구 상수동 309-18,126.92269933329312,37.547654636529835
마포FM,서울 마포구 성산동 226-1,126.917386645478,37.560758752081
상수역 3번,서울 마포구 서교동 345-19,126.923468604935,37.5545171391794
홍익대,서울 마포구 상수동 72-1,126.925554591431,37.550874837441
광흥창역 6번,서울 마포구 창전동 329-17,126.9310962474328,37.54729943546203
홍대입구역 3번,서울 마포구 서교동 345-19,126.923468604935,37.5545171391794
광흥창역 1번,서울 서대문구 창천동 30-13,126.93624367728,37.5555815985936
경의선책거리,서울 마포구 동교동 176-1,126.928237335078,37.557226729996
홍대땡땡거리,서울 마포구 동교동 190-1,126.9317028287,37.5546987847474
KB국민은행 서강지점,서울 마포구 신수동 448-6,126.93529581110853,37.54449790258715
대흥동주민센터,서울 마포구 노고산동 1-50,126.942380874348,37.5558469433118
서강대역 1번,서울 서대문구 창천동 30-13,126.93624367728,37.5555815985936
신촌역 6번,서울 마포구 동교동 177-13,126.92975021855,37.5563194345813
신수동주민센터,서울 마포구 신수동 458,126.935226865858,37.5470206619327
대흥역 3번,서울 마포구 아현동 267-9,126.95640460800544,37.55719003423211
대흥역 2번,서울 마포구 대흥동 128-1,126.942287451037,37.5478460347561
용강동주민센터,서울 마포구 용강동 505,126.94270698738548,37.542315906492746
양원초등학교,서울 중랑구 망우동,127.10530396794323,37.60899426239047
마포역 4번,서울 마포구 도화동 292-29,126.94590351750708,37.53926122285488
공덕래미안3차아파트,서울 마포구 공덕동 457,126.95191497165763,37.548297243123734
공덕동주민센터,서울 마포구 공덕동 29-6,126.960034513244,37.5501743473884
이대역 5번,서울 마포구 대흥동 2-6,126.946038291314,37.556353230051
한겨레신문사,서울 마포구 공덕동 116-25,126.95884129637,37.5468834904504
만리재,서울 마포구 아현동 393-35,126.962301650028,37.5515590263545
마포경찰서,서울 마포구 아현동 618-1,126.95400918908302,37.550824477077796
아현역 4번,서울 마포구 아현동 329-15,126.955793438654,37.5572222428904
서울서부지방법원,서울 마포구 공덕동 105-1,126.95550851606,37.5491347785223
서울금융고등학교,서울 양천구 신월동 43-8,126.825795726916,37.5374494414732
신월3동주민센터,서울 양천구 신월동 167-5,126.829053899724,37.5336736083541
애오개역 3번,서울 마포구 아현동 267-9,126.95640460800544,37.55719003423211
메디힐병원,서울 양천구 신월동 51-11,126.82773754024734,37.537350477070135
충정로역 6번,서울 중구 남대문로1가,126.983107003547,37.5687548570305
서서울호수공원,서울 양천구 신월동 149-20,126.830251743957,37.5283197900701
신월중학교,서울 양천구 신월동 17-6,126.828991805646,37.5410472972819
신월7동주민센터,서울 양천구 신월동 915-4,126.83296361144711,37.52422139866548
신월1동우편취급국,서울 양천구 신월동 229-3,126.83676185629,37.5291362643685
지향초등학교,서울 양천구 신정동 1284,126.837203921753,37.5131278719885
신월문화체육센터,서울 양천구 신월동 987,126.83506718170453,37.519857199356174
신월1동주민센터,서울 양천구 신월동 135-18,126.8315358974018,37.53280140298755
신월1파출소,서울 양천구 신월동 132-3,126.83224691735309,37.53206990198176
목동센트럴아이파크앞,,,
신월시영아파트중문,,,
신월4동주민센터,서울 양천구 신월동 425-2,126.840038699809,37.5246645746934
금빛새마을금고본점,서울 양천구 신월동 601-3,126.84400691841675,37.519359377414325
신월2동주민센터,서울 양천구 신월동 483-11,126.844581213729,37.5249805841855
신정네거리역 2번,서울 양천구 신정동 1190-2,126.85215940534,37.5210691535297
신정네거리역 4번,서울 양천구 신정동 1032-8,126.85346570491097,37.51946249240158
신한은행 신월동지점,서울 양천구 신월동 54-7,126.828964478284,37.539140743927
신정역 1번,서울 양천구 신정동 1090,126.85446191296494,37.524894063052464
계남근린공원,서울 양천구 신정동 521,126.84818763253871,37.51385158912356
신정역 5번,서울 양천구 신정동 1090,126.854631900403,37.5247411021333
양목초등학교,서울 양천구 신정동 1001,126.86169847052568,37.523767496597266
등촌역 4번,서울 양천구 목동 603-25,126.867258138085,37.5495514828868
목동로데오거리,서울 양천구 신정동 1068,126.8627825817472,37.52788904096764
강서고등학교,서울 양천구 목동 735,126.866303216882,37.5367742413057
목4동주민센터,서울 양천구 목동 904-19,126.86840848962976,37.53246982497962
신서초등학교,서울 양천구 신정동 312-1,126.862309614565,37.5205444252905
목동문화체육센터,서울 양천구 목동 946-1,126.86912570253908,37.54287716910866
목동보건지소,서울 양천구 목동 717-28,126.866958175094,37.5400438076113
신정2동주민센터,울산 남구 신정동 1210-9,129.30779122438295,35.53470911859604
신정롯데캐슬아파트,서울 양천구 신정동 1309,126.87481286598134,37.51984474555491
신목동역,서울 양천구 목동 136-2,126.883095790252,37.5442883741577
목동역 5번,서울 양천구 목동 927-8,126.86496961170239,37.525897645720484
달마을공원,서울 양천구 목동 946-1,126.868473273547,37.5432530617707
갈산공원,서울 양천구 신정동 163-55,126.869019038237,37.5081073985697
양화초등학교,서울 양천구 목동 542,126.87498981812426,37.54395661240763
방화초등학교,서울 강서구 방화동 542-2,126.806941465229,37.5688865309064
송정역 3번,서울 강서구 공항동 41-105,126.812186926029,37.5602913910646
개화산역 1번,서울 강서구 방화동 846,126.80632862039784,37.572127303575364
공항시장역 1번,서울 강서구 과해동 676,126.80111505891693,37.56177521882351
공항시장역 3번,서울 강서구 공항동 41-105,126.812186926029,37.5602913910646
방화역 3번,서울 강서구 공항동 41-105,126.812186926029,37.5602913910646
방화역 2번,서울 강서구 방화동 830-1,126.81283648963898,37.577066234841766
송정역 2번,서울 강서구 공항동 26-3,126.811709760727,37.5614592222889
방화역 1번,서울 강서구 방화동 830-8,126.813028848818,37.5771025793897
신방화역 2번,서울 강서구 방화동 217-156,126.81637941300866,37.56801681089556
정곡초등학교,경남 의령군 정곡면 중교리 428-1,128.324435055697,35.3794640342016
공항고등학교,서울 강서구 마곡동 731-265,126.81835776211537,37.57045075410555
신광명마을,서울 강서구 내발산동,126.822241883582,37.547427208977
신방화역 8번,서울 강서구 방화동 217-156,126.8158827441157,37.56745742073741
강서구다솔마을,서울 강서구 공항동 1350-1,126.818251051426,37.5561337750383
양천향교역 7번,서울 강서구 등촌동 709,126.84098779023755,37.56783628168848
화원중학교,서울 강서구 화곡동 351-94,126.842574485942,37.5367522012099
우장산힐스테이트,서울 강서구 내발산동 657,126.83896612119196,37.55629539035237
우장산역 4번,서울 강서구 화곡동 1076-14,126.841471871779,37.5407682820836
양천향교역 2번,서울 강서구 가양동 150-34,126.841301725745,37.5692512658586
푸른들청소년도서관,서울 강서구 화곡동 1019,126.835107606436,37.54465998988
발산역 5번,서울 강서구 내발산동 727-13,126.83857458347475,37.55837255346113
화곡역 5번,서울 강서구 화곡동 1075-51,126.840478324779,37.5413372764393
우장산역 1번,서울 강서구 내발산동 654,126.83735337875115,37.55786001260061
화곡역 2번,서울 강서구 화곡동 1089-43,126.84080525750142,37.541905346911754
양천향교역 5번,서울 강서구 가양동 133-1,126.84188169967666,37.56798164147748
까치산역 3번,서울 강서구 화곡동 343-49,126.84625549448829,37.53159612256726
화곡역 4번,서울 강서구 화곡동 1076-14,126.841471871779,37.5407682820836
까치산역 4번,서울 강서구 화곡동 1076-14,126.841471871779,37.5407682820836
강서새말어린이공원,서울 강서구 화곡동 994-5,126.846367717196,37.5518939718075
곰달래도서관,서울 강서구 화곡동 890,126.84915907010613,37.52911310500611
KC대학교,서울 강서구 화곡동 953-1,126.85415538586544,37.54868908805067
화곡초등학교,서울 강서구 화곡동 24-266,126.845797443273,37.5430598438744
가양역 10번,서울 강서구 등촌동 63-19,126.85235169491092,37.56239100862689
등촌3동주민센터,서울 강서구 등촌동 705-4,126.84792202690075,37.55888051136483
우장산롯데캐슬아파트앞,,,
까치산역 1번,서울 강서구 화곡동 341-65,126.84654213649871,37.53250290176584
강서구청옆,서울 강서구 가양동 451-7,126.85970255222,37.5602051461801
화곡보람2차아파트,서울 강서구 화곡동 1149,126.8546338619796,37.554037999325196
화곡2동주민센터,서울 강서구 화곡동 860-4,126.854495982485,37.5318155949635
신곡초등학교,경기 김포시 고촌읍 신곡리 1267,126.76642850359855,37.59675127432995
등촌1동주민센터,서울 강서구 등촌동 642-1,126.858921911461,37.5558415907167
뜸부기어린이공원,서울 강서구 화곡동 845-19,126.856947474022,37.5301427286892
백석중학교,서울 강서구 등촌동 520-5,126.858958714072,37.5483237119528
염창무학아파트,서울 강서구 염창동 255,126.87655720734318,37.55139600220708
강서구청가양동별관,서울 강서구 가양동 1488-9,126.859664509893,37.5605745094059
화곡4동주민센터,서울 강서구 화곡동 809-3,126.86087171922286,37.534626290265834
등촌역 7번,서울 강서구 등촌동 608-1,126.86397400413075,37.550854192047076
온수역 1번,경기 부천시 소사구 괴안동 113-7,126.811584515181,37.4848333655793
온수역 5번(온수산업단지),,,
오류고등학교,서울 구로구 궁동 110-1,126.828134937981,37.5002486867652
등촌역 1번,서울 강서구 등촌동 648-4,126.8640631297177,37.55162915264868
염창역 2번,서울 강서구 염창동 282-41,126.874957304788,37.5471632320009
금강수목원아파트,서울 구로구 오류동 343,126.83238220538274,37.488278617900434
서울공연예술고등학교,서울 구로구 궁동 147-1,126.83214751488,37.5001823759245
오류동역 3번,서울 구로구 오류동 66-10,126.84386851402603,37.494570767357764
오류2동버들시장,서울 구로구 오류동 302,126.841077237172,37.491037803678
개봉중학교,서울 구로구 개봉동 24-2,126.842188874755,37.5028127353151
수궁동주민센터,서울 구로구 궁동 213-42,126.831478611977,37.4938815927186
"천왕역 3번(오류2동주민센터, 서울오류남초등학교)",,,
오류지구대,서울 구로구 오류동 81-130,126.838835948967,37.4947784485702
큰굴다리,,,
세곡초등학교,경기 수원시 권선구 권선동 1044,127.028311836115,37.2563043505878
오류동역 4번,서울 구로구 오류동 56-39,126.84466920222619,37.49562780187435
오류동역 1번,서울 구로구 오류동 66-10,126.844830802478,37.4940404415791
개봉3동주민센터,서울 구로구 개봉동 360-7,126.853852208063,37.4859969447161
개웅초등학교(개웅중학교),서울 구로구 개봉동 273-15,126.851108353769,37.4875468554066
개봉1동주민센터,서울 구로구 개봉동 134-8,126.851146433461,37.5002655077823
개봉역,서울 구로구 개봉동 415,126.858715959622,37.4946417150651
덕의초등학교,서울 구로구 고척동 217,126.856784814214,37.506334438781
고척초등학교,서울 구로구 고척동 129-3,126.856921595364,37.5010366961461
고척동성당,서울 구로구 고척동 156-2,126.858312131366,37.5048838612904
그라운드 고척,서울 구로구 신도림동 692,126.888888061887,37.5085782613992
구로창업지원센터,서울 구로구 고척동 78-2,126.864573553863,37.50029157471795
개봉초등학교,서울 구로구 개봉동 266,126.85842450385984,37.48969303788138
화원어린이공원,서울 구로구 구로동 478-1,126.88044047179054,37.49791742966862
고척중학교,서울 구로구 고척동 76-2,126.862152459954,37.5002031788672
남구로역 3번,서울 구로구 가리봉동 25-202,126.886119577912,37.4845728200631
구로구민회관,서울 구로구 구로동 102,126.889592591139,37.4971253432469
구로119안전센터,서울 구로구 구로동 409-60,126.882540627508,37.4942173018697
구로4동주민센터,서울 구로구 구로동 317-87,126.88916194362,37.4916288000658
남구로역 2번,서울 구로구 구로동 801-52,126.88687637388588,37.48506910148263
구로초등학교,서울 구로구 구로동 443,126.88598721458,37.4972696837145
남구로역 5번,서울 구로구 구로동 805-4,126.8862994897,37.4852289271391
구로보건소,서울 구로구 구로동 109-4,126.88932582970455,37.50010922516876
구로나눔길,,,
영서중학교,서울 구로구 구로동 145-20,126.894362186495,37.4893377980768
한국SGI본부,서울 구로구 구로동 45-13,126.89079764415249,37.50208379700182
대림역 2번,서울 구로구 구로동 125-83,126.894723814845,37.4927078874255
G타워,인천 연수구 송도동 24-4,126.634268536312,37.3960581477707
가산디지털단지역 1번 출입구,서울 금천구 독산동 997-28,126.900675666702,37.4726656039467
가리봉파출소,서울 구로구 가리봉동 136-80,126.892667016474,37.4792017308945
두산초등학교,서울 금천구 독산동 1002-5,126.890843508613,37.4674581009582
금천구립가산도서관,서울 금천구 가산동 235-3,126.89212800300261,37.47350505908624
서울축산농협 독산역지점(독산파출소),,,
가산동주민센터,서울 금천구 가산동 144-3,126.891779471154,37.47687631793
금천구청역 1번 출입구,서울 금천구 독산동 997-28,126.900675666702,37.4726656039467
가산초등학교(세일중학교),서울 금천구 독산동 147-2,126.895698937273,37.4745372181855
금천철쭉어린이공원(금하마을),,,
독산역 1번 출입구,서울 금천구 독산동 997-28,126.900675666702,37.4726656039467
금천파출소,서울 금천구 시흥동 995-2,126.899841076791,37.4542428213825
가산동우체국,서울 금천구 가산동 429-1,126.88066457267902,37.47789546840764
독산119안전센터,서울 금천구 독산동 1054-8,126.897928891346,37.4641306929423
시흥3동 우편취급국,서울 금천구 시흥동 983-8,126.903076952859,37.4410294491722
문성초등학교,서울 금천구 독산동 982,126.899460711884,37.4749621513514
금천어울림복지센터,서울 금천구 시흥동 113-142,126.897617612826,37.456985400276
KT금천빌딩(금천구시설관리공단),,,
말미고개,서울 금천구 독산동 1055,126.897848594386,37.4633305255365
독산동성당,서울 금천구 독산동 191-1,126.90361019788,37.4693036620162
금천세무서,서울 금천구 독산동 1156,126.89721293232954,37.461152229507604
금천해태공원,서울 금천구 시흥동 871-24,126.901875362082,37.4577692888291
독산동정훈단지,서울 금천구 독산동,126.902208898077,37.4654966411758
금천금빛공원(은행나무사거리서측),,,
독산2동주민센터,서울 금천구 독산동 1043-51,126.903536693058,37.4631659154252
시흥초등학교(시흥1동우체국),,,
백산초등학교,부산 북구 만덕동 923,129.0324696018887,35.21192687239135
시흥4동주민센터(서울신흥초등학교),서울 금천구 시흥동 704-56,126.908776660592,37.4596849632346
시흥동 은행나무사거리,서울 금천구 시흥동,126.90605525463276,37.45219361492586
삼성산자연공원(서울금천초등학교),서울 금천구 시흥동 216,126.912869437493,37.4548117726277
석수역 1번 출입구,,,
금산초등학교(금천고등학교),서울 금천구 시흥동 산 24-4,126.9053682765578,37.444882241939716
난곡중학교,서울 금천구 독산동 906-41,126.91091613225,37.477923050104
한울중학교,서울 금천구 시흥동 792-1,126.907095854101,37.4624803943462
양평역 2번,경기 양평군 양평읍 양근리 130-9,127.491780030098,37.4938044261652
문래소공원,서울 영등포구 문래동6가 25-1,126.88695065153105,37.51980292669281
동일여자고등학교,서울 금천구 시흥동 산 100-4,126.916268831587,37.4510191629087
문래예술촌(문래창작촌),서울 영등포구 문래동3가 54-28,126.89777054767478,37.51398329680753
선유도역 6번,서울 영등포구 양평동4가 93-1,126.89392526543554,37.53761318281153
문래중학교,서울 영등포구 문래동6가 44,126.8841916952,37.5205174517901
도림동주민센터,서울 영등포구 도림동 222-7,126.895944463886,37.5094388403329
도림2동유수지내체육시설,서울 영등포구 대림동 611,126.895038064625,37.5040968825584
영등포구청역 6번,서울 영등포구 당산동2가 164-2,126.896014780512,37.5239738856179
대림역 11번,서울 영등포구 대림동 697-2,126.89796809981273,37.49349460981279
선유도역 1번,서울 영등포구 양평동5가 64-1,126.893664067025,37.5382904998421
영등포구청역 2번,서울 영등포구 당산동3가 385-1,126.89643066733461,37.52591140519203
문래동사거리,서울 영등포구 문래동1가,126.897210713095,37.5131124413989
대림역 5번,서울 영등포구 대림동 807-4,126.89504947297623,37.49432998927176
대림차이나타운(대림역 12번),,,
당산반도유보라팰리스아파트,서울 영등포구 당산동4가 96,126.90079252030517,37.52791357136274
대동초등학교,경남 김해시 대동면 초정리 173,128.980549242281,35.2433066165655
신우어린이공원,서울 영등포구 대림동 657,126.899205539299,37.5033328555998
도신초등학교,서울 영등포구 대림동 741-3,126.901093369191,37.4988330272962
구로세무서,서울 영등포구 문래동1가 23-1,126.899820695994,37.5135471656189
영등포시장역 1번,서울 영등포구 영등포동 618-509,126.90793791431712,37.515027813109356
신대림초등학교,서울 영등포구 대림동 968,126.90594183094,37.4922127874005
구로디지털단지역 4번,서울 구로구 구로동 119-1,126.89305288482242,37.49403356953975
당산역 8번,서울 영등포구 여의도동 17,126.918627230644,37.5252530327215
신길대성유니드아파트,서울 영등포구 신길동 389,126.90305281140444,37.501743098114865
신길3동주민센터,서울 영등포구 신길동 255-9,126.90988582946052,37.506458963408726
대림갑을명가아파트,서울 영등포구 대림동 1119,126.90369844513665,37.495674449855805
대림한신아파트,경남 진주시 인사동 167-1,128.073120166615,35.188019549195936
영등포시장역 4번,서울 영등포구 영등포동6가 10-1,126.90495352295035,37.52254882377717
영등포시장역 3번,서울 영등포구 영등포동5가 62-1,126.90528159246718,37.52254007730903
대림성모병원,서울 영등포구 대림동 978-13,126.90714688301,37.4906748204891
영등포푸르지오아파트,서울 영등포구 영등포동 647,126.90237014189154,37.51185180912726
신풍역 3번,서울 영등포구 신길동 399,126.908544389954,37.50003556647129
대림썬프라자,서울 영등포구 대림동 909-2,126.90789115030113,37.4960120665932
대림1동주민센터,서울 영등포구 대림동 899-2,126.905833713564,37.4954671376518
KT대방빌딩,서울 영등포구 신길동 4668,126.909086311058,37.4951885714461
신풍역 2번,서울 영등포구 신길동 3616,126.90960743156302,37.500036384670814
영등포역 2번,서울 영등포구 영등포동 618-496,126.907429176754,37.5148111746451
영동초등학교,서울 영등포구 당산동 121-22,126.907649605583,37.5268559504154
영등포동성당,서울 영등포구 영등포동2가 94-215,126.910714912015,37.5215964550646
도림초등학교,경기 구리시 교문동 396-1,127.130006856664,37.5932851997873
신길동홍어거리,서울 영등포구 신길동,126.911840808155,37.5107384081464
한림대학교한강성심병원,서울 영등포구 영등포동7가 94-200,126.90969265919573,37.52316522406567
영등포본동주민센터,서울 영등포구 영등포동 592-70,126.909352273906,37.5146504855238
신풍역 1번,서울 영등포구 신길동 2802-1,126.910930600562,37.5000193696043
신길새마을금고신길4동지점,서울 영등포구 신길동 238-37,126.91337513712718,37.50531279243159
장훈고등학교,서울 영등포구 신길동 176,126.915140915693,37.5130185633118
보라매역 4번,서울 영등포구 신길동 424-3,126.90828390934368,37.500341706496336
신길2동우편취급국,서울 영등포구 신길동 192-2,126.91299809638191,37.511526743844186
서울지방병무청,서울 영등포구 신길동 1200-1,126.91925935156293,37.505548519198875
신길역 3번,서울 영등포구 영등포동1가 35,126.91428046638256,37.517690546238505
공군호텔,서울 영등포구 신길동 1196,126.9237559648766,37.51015564119212
신길역 1번,서울 영등포구 여의도동 3,126.92367657780383,37.52147219387076
영신초등학교,서울 영등포구 신길동 121,126.917994487619,37.5100760974541
대방역 6번,서울 영등포구 신길동 1372,126.925495110648,37.5128417433785
대방역 4번,서울 동작구 노량진동 62-11,126.940624166282,37.51334767153
신길6동주민센터,서울 영등포구 신길동 3741-11,126.90976992694576,37.49939048768285
보라매역 6번,서울 영등포구 대림동 727-5,126.89687704566,37.4950190666927
신대방역 4번,서울 관악구 신림동 1640-6,126.928940666353,37.4839287757611
보라매역 2번,서울 동작구 대방동 400-7,126.92047578713488,37.49962072816592
대방역 3번,서울 동작구 대방동 117-4,126.92685258453342,37.51267140106515
신대방삼거리역 1번,서울 동작구 대방동 336-13,126.929378232934,37.4995380870341
신대방역 3번,서울 동작구 신대방동 643-1,126.912732113925,37.4873885986235
성남고등학교,서울 동작구 대방동 375-1,126.92618128846676,37.50520165560867
신대방삼거리역 4번(대림초등학교),,,
신대방삼거리역 3번,서울 동작구 대방동 406-10,126.92696705788228,37.49966095981933
노량진역 6번,서울 동작구 노량진동 44-32,126.93970117086512,37.51337243206868
장승배기역 5번,서울 동작구 상도1동 676-3,126.94813494757028,37.50311399207056
장승배기역 4번,서울 동작구 노량진동 62-11,126.940624166282,37.51334767153
상도초등학교,경기 부천시 원미구 상동 418,126.759164182073,37.4944735062314
NH농협은행 상도동지점,서울 동작구 상도동 345-8,126.93234258101542,37.50047236313393
상도4동주민센터,서울 동작구 상도동 202-59,126.941401972639,37.49937527396049
상도역 5번,서울 동작구 상도1동 676-3,126.94813494757028,37.50311399207056
숭실대입구역 1번,서울 관악구 봉천동 853-4,126.953560963051,37.4806864842682
노량진초등학교,서울 동작구 노량진동 51,126.940808664862,37.5117511849048
숭실대입구역 4번,서울 동작구 상도동 513-3,126.9547217135562,37.49536804732842
상도역 2번,서울 동작구 상도1동 752-2,126.94739980952662,37.503149707240475
상도역 1번,서울 동작구 상도1동 742-3,126.9475582676191,37.502969576579964
동작구자원봉사센터,서울 동작구 노량진동 325-5,126.94704355169871,37.50796812374748
흑리단길,서울 동작구 흑석동 50-91,126.964517903407,37.5076521054512
상도1동주민센터앞,,,
중앙대학교,서울 동작구 흑석동 221,126.95717341298158,37.50514938189445
사당5동주민센터,서울 동작구 사당동 228-11,126.967015818217,37.4856250199876
사당종합체육관,서울 동작구 사당동 산 21-9,126.969676779335,37.4928482109293
예술인마을,전북특별자치도 완주군 구이면 항가리 361,127.111204237923,35.725644164803
경문고등학교(동작동성당),서울 동작구 사당동 42,126.98035171150416,37.49174042760731
남성역 1번,서울 관악구 봉천동 853-4,126.953560963051,37.4806864842682
양지어린이공원,서울 중랑구 면목동 98-20,127.08910898315611,37.59033547275678
이수역 10번,서울 동작구 사당동 1032-32,126.980463727861,37.4784451663605
사당역 10번,서울 동작구 사당동 1032-32,126.980463727861,37.4784451663605
조원동주민센터,서울 관악구 신림동 568-27,126.907817274289,37.4825122141701
신대방역 2번,서울 관악구 신림동 518,126.91310569525142,37.48700144061617
이수역 9번,서울 동작구 사당동 144-4,126.98092563367257,37.48485141524183
미성초등학교,서울 관악구 신림동 768-21,126.912570897291,37.4782486494323
KT구로지사,서울 관악구 신림동 1660,126.903025550698,37.480843314601
미성동주민센터,서울 관악구 신림동 763-9,126.915575982306,37.4762073456029
난곡초등학교(난곡동벽화마을),서울 관악구 신림동 709-17,126.918211243837,37.4710392041947
난우초등학교,서울 관악구 신림동 593,126.917704735214,37.4772828506632
신대방역 1번,서울 관악구 신림동 516,126.91338818274907,37.48716382945105
남강고등학교(남강중학교),서울 관악구 신림동 627-1,126.92506805066,37.4716005756348
난향초등학교,서울 관악구 신림동 672,126.917626170931,37.4623368337929
호림박물관(성보고등학교),서울 관악구 신림동 1690,126.92084935252053,37.47997901641534
관악구신사동주민센터,서울 관악구 신림동 492-4,126.91803163788799,37.48540477064605
국제신학대학원대학교(남서울중학교),서울 관악구 신림동 1690-3,126.921249614083,37.4821038626225
신림우방아파트,서울 관악구 신림동 1715,126.91880006812026,37.48893545002151
난우중학교,서울 관악구 신림동 652-156,126.922870736713,37.4668922823638
남부초등학교,강원특별자치도 춘천시 퇴계동 915,127.726281334949,37.8588243150236
"신림역 5번(신림동주민센터, 신림동별빛거리)",,,
신원동주민센터,서울 관악구 신림동 1601-3,126.92732837671659,37.48157075665021
신림주공2단지(광신고등학교),,,
보라매동주민센터(당곡고등학교),서울 관악구 봉천동 677,126.935016756253,37.4918106863295
신림초등학교,강원특별자치도 원주시 신림면 신림리 512-2,128.078590308772,37.2315079600441
당곡중학교,서울 관악구 봉천동 682,126.933170957487,37.4922349320296
원신초등학교(구세군관악영문교회),서울 관악구 신림동 354-55,126.929257329312,37.4694515449883
서원동주민센터(신관중학교),서울 관악구 신림동 87-81,126.934258023384,37.4801800538491
미림여고,서울 관악구 신림동 1557-1,126.932650416012,37.4674676998472
신림현대아파트,서울 관악구 신림동 1694,126.93247282827244,37.475134295560736
신림역 8번,서울 관악구 신림동 1422-38,126.93020419840052,37.48450797630244
신림역 1번,서울 관악구 신림동 1467-5,126.93020453366672,37.48414757316173
신성초등학교,경북 안동시 풍천면 신성리 373,128.462287480803,36.5250007291653
구립대학경로당(관악산샘말공원),,,
은천초등학교(은천교앞),,,
청룡동주민센터,서울 관악구 봉천동 1539-1,126.941675584432,37.4790955291894
서울산업정보학교(서울삼성초등학교),,,
봉천역 4번(봉천110안전센터),,,
봉천역 1번(관악초등학교),,,
영락고등학교,서울 관악구 봉천동 1558-1,126.944323126951,37.4764226104745
관악해태어린이공원,서울 관악구 신림동 103-141,126.940613535413,37.4724996091652
구암초등학교,서울 관악구 봉천동 491-5,126.946837224333,37.4895064136721
봉천역 6번,서울 관악구 봉천동 926-33,126.942744787157,37.4824874498036
샤로수길,서울 관악구 봉천동,126.955677012972,37.4785646095049
관악우성아파트,서울 관악구 봉천동 1706,126.95926400852285,37.48538833941678
청림동주민센터(상도중학교),,,
관악구 중앙길,서울 관악구 봉천동 464-41,126.947861565242,37.4864074030954
관악소방서(문영여고),서울 관악구 봉천동 1695,126.951090199503,37.4734811051202
인헌고등학교(인헌중학교),서울 관악구 봉천동 1647,126.9693546126,37.47320613842
서울대입구역 8번,서울 관악구 봉천동 852-5,126.95367315277564,37.4811812723318
낙성대역 5번(관악중학교),,,
방배아이파크아파트,서울 서초구 방배동 3277,126.9848386409981,37.49160413550485
이수역 5번,서울 관악구 남현동 602-40,126.980396743214,37.4751925104072
낙성대역 1번(관악구민 종합체육센터),,,
사당역 4번,서울 관악구 남현동 1061-29,126.981504679443,37.4750935779339
방배노인종합복지관(이수중학교),,,
구반포역,서울 서초구 반포동 817,126.987464905696,37.5014398319603
서문여고,서울 서초구 방배동 1514,126.985449667642,37.4894850425483
방배동사이길,서울 서초구 방배동 32-2,126.990211677155,37.4945239661268
방현초등학교(방배119안전센터),서울 서초구 방배동 481-9,126.988206343248,37.4754980893082
방배초등학교,서울 서초구 방배동 861-1,126.987204917936,37.4874597799616
서초소방서,서울 서초구 반포동 114-2,126.991857716474,37.4984416680043
내방역 5번,서울 관악구 남현동 602-40,126.980396743214,37.4751925104072
남태령역(서울전자고등학교),서울 서초구 방배동 2727,126.988279581658,37.4698325438362
방배역 3번,서울 서초구 방배동 2525,126.982155879969,37.4750071811172
서래초등학교,서울 서초구 방배동 771,126.989333917712,37.4962682393543
내방역 4번,서울 서초구 방배동 908-35,126.99767091930283,37.48178950249745
서울프랑스학교,서울 서초구 반포동 98-2,126.997928309582,37.4959659644295
내방역 1번,서울 서초구 서초동 1542-23,127.00817548660568,37.49180845314275
서초중학교,서울 서초구 서초동 1528,127.008905233064,37.4856364966358
내방역 8번,서울 서초구 방배동 875-8,126.993961982016,37.4879792991245
반포4동주민센터(몽마르뜨공원),서울 서초구 서초동 산 180-1,127.003858379724,37.4953712551069
남부터미널역 1번,서울 서초구 서초동 1676-4,127.0180296317,37.4942707138908
신중초등학교,서울 서초구 서초동 1466-5,127.009343253696,37.4801511216109
잠원역,서울 서초구 잠원동 100-1,127.011419491429,37.5128899169357
삼성전자서울R&D(서울우면초등학교),,,
서초동성당,서울 서초구 서초동 1634-1,127.021747337049,37.4929005572459
서울시인재개발원,서울 서초구 서초동 391,127.02017331177129,37.480409259493
한국상담대학원대학교,서울 서초구 서초동 1437-1,127.023984387611,37.4869210375182
우면주공아파트,서울 서초구 우면동 63,127.024309284654,37.4706631584568
한전아트센터,서울 서초구 서초동 1355,127.028674147842,37.4859288834084
방아다리근린공원(횃불트리니티신학대학원대학교),서울 서초구 양재동 55,127.03357820506345,37.478976308777945
더케이호텔(양재리본타워2단지아파트),,,
바우뫼공원,서울 서초구 양재동 105,127.034471628479,37.4746322840854
법제교육센터(버들어린이공원),,,
양재역 8번(양재동우체국),,,
염곡동 구룡사(포이동성당),,,
언남고등학교,서울 서초구 양재동 309,127.04287706622506,37.472771650170635
양재근린공원(양재2동주민센터),서울 서초구 양재동 323-1,127.041288687936,37.4706332171942
청계산원터골,서울 서초구 원지동,127.054956622046,37.4438567659382
헌인가구단지,,,
청계산입구역 2번(내곡동주민센터),,,
논현목련공원,서울 강남구 논현동 137-18,127.026747305762,37.5108547748898
국기원,서울 강남구 역삼동 635,127.03028620611877,37.50199523828162
한남IC,서울 서초구 잠원동,127.017737591358,37.5217189711292
언북중학교,서울 강남구 논현동 69,127.033184528594,37.519333389403
신사은행나무공원,서울 강남구 신사동 558,127.025913690945,37.520600216696
역삼역 4번,서울 강남구 역삼동 646-17,127.03515980477283,37.500516238601826
학동근린공원,서울 강남구 논현동 26,127.02521854483699,37.51550068824694
언주역 8번,서울 강남구 역삼동 804,127.03721836268188,37.501146312139575
논현초등학교,서울 강남구 논현동 168,127.02621712772654,37.50844740939438
언주역 3번,서울 강남구 논현동 201-12,127.02572963105125,37.50507775762522
은광여고,서울 강남구 도곡동 938-10,127.035369029997,37.4885435962273
역삼월드메르디앙아파트,서울 강남구 역삼동 795-41,127.03842866397511,37.49275575173191
신구중학교,서울 강남구 신사동 621,127.032237703544,37.5271723736614
논현2동주민센터,서울 강남구 논현동 114-24,127.03735085673989,37.51739138431454
도산공원북측,,,
언주역 6번,서울 서초구 잠원동 68-17,127.00227892370327,37.505522030368724
선정릉역 4번,서울 강남구 역삼동 804,127.048031704808,37.503971568142525
학동초등학교,경기 화성시 반송동 81,127.066133683877,37.2053728983749
역삼역 8번,서울 강남구 역삼동 804,127.03721836268188,37.501146312139575
강남세브란스병원미래의학연구센터,서울 강남구 역삼동 783-21,127.044300742906,37.4945052534011
베르사이유1아파트,서울 강남구 역삼동 725-13,127.03960488487333,37.499563369575576
강남구청역 2번,서울 강남구 논현동 279-67,127.04066487688958,37.51688572790791
언주중학교,서울 강남구 삼성동 28,127.046656322962,37.5146508261771
논현로18길,서울 강남구 개포동 1237-1,127.045548182279,37.4779947056319
도곡2동주민센터(대치중학교),서울 강남구 도곡동 460,127.047420035224,37.4845785423122
강남구청역 4번,서울 강남구 청담동 77-76,127.04177372097674,37.51745297311176
매봉역 1번,서울 서초구 양재동 15-24,127.0382308056108,37.48171936863131
개포지구대옆,,,
국립국악고등학교,서울 강남구 개포동 1272,127.051331051249,37.4763885379422
언북초등학교,서울 강남구 청담동 27,127.04506683563,37.5198484310315
청담초등학교,서울 강남구 청담동 142,127.045153379266,37.5283070082354
국악고교사거리,,,
포이초등학교(개포목련어린이공원),,,
청담근린공원,서울 강남구 청담동 66,127.052764503364,37.5212868476563
강남구보훈회관,서울 강남구 삼성동 20-2,127.050127686226,37.5162892306527
대치동아우편취급국,서울 강남구 대치동 901-12,127.0545789934904,37.502671276598576
청담역 12번,서울 강남구 청담동 73-2,127.05521367018059,37.5198621435818
삼성중앙역 7번,서울 서초구 서초동 1308-5,127.024897142403,37.5013928230852
청담역 3번,서울 강남구 삼성동 111-185,127.0555076141204,37.51963675505653
봉은사역 4번,서울 강남구 삼성동 71-8,127.053908089851,37.5133214613908
대치2동주민센터,서울 강남구 대치동 980-9,127.064164457307,37.5022592044398
은곡마을(은곡마을공원),서울 강남구 세곡동 369-3,127.10060465894345,37.46806576427955
삼성중앙역 5번,서울 강남구 역삼동 804,127.047884956782,37.5044041103135
윗방죽마을공원,서울 강남구 율현동 308-1,127.10459143841561,37.47036168143135
도곡초등학교,경기 광주시 초월읍 쌍동리 182,127.299492116988,37.3705653822745
개포고등학교,서울 강남구 개포동 173,127.058559720098,37.4850745068127
대청초등학교,경기 용인시 수지구 죽전동 1389,127.129048969789,37.3341879050089
한국교통안전공단 강남자동차검사소,서울 강남구 율현동 123-1,127.119268286115,37.4683709624438
삼전역 4번,서울 송파구 잠실동 347,127.087355519256,37.5043815160941
삼전역 1번,서울 강남구 일원동 717,127.084450960111,37.4840749361128
석촌고분역 1번,서울 송파구 송파동 195-9,127.112331955415,37.5000355799567
대왕초등학교(세곡동사거리서남측),,,
아래방죽마을공원(율현초등학교),서울 강남구 자곡동 361-2,127.108271353089,37.4744903984208
석촌역 7번,서울 송파구 방이동 36-9,127.10945539757581,37.5150562239623
삼전역 3번,서울 송파구 삼전동 23,127.08859916106,37.5040291978469
잠실나루역,서울 송파구 신천동 15,127.103808749487,37.5207124124456
석촌역 6번,서울 송파구 석촌동 209,127.10693315313327,37.504860968876876
석촌고분역 4번,서울 송파구 삼전동 90,127.096728464098,37.502265860595
석촌고분역 3번,서울 송파구 삼전동 23,127.08859916106,37.5040291978469
송파책박물관,서울 송파구 가락동 479,127.10438467827207,37.49888597821397
송파나루역 1번(송리단길),,,
송파역 2번,서울 송파구 송파동 188-4,127.11285119061247,37.49938636097006
송파나루역 2번,서울 송파구 송파동 68,127.10757907164601,37.5057433672043
한성백제역 3번,서울 송파구 방이동 11,127.116665157264,37.515771927448
방이동고분군(방산고등학교),,,
석촌역 3번,서울 송파구 잠실동 41,127.10022548000526,37.51255241828404
송파나루역 3번,서울 송파구 석촌동 209,127.10773741945133,37.50524685124879
경찰병원역 4번(건너말공원),,,
방이역 4번,서울 송파구 방이동 184-8,127.12595180861,37.5090679325615
석촌중학교(방이육교),서울 송파구 오금동 44-2,127.123706487713,37.5048211680675
문정역 1번,서울 강남구 수서동 725,127.10317378322905,37.486755885862216
경찰병원역 3번,서울 송파구 문정동 652-1,127.12251619575,37.4830468831451
문정초등학교,광주 북구 문흥동 962-1,126.921447166354,35.1892000584209
문현중학교(장지역 1번),,,
장지동주민센터(한림연예예술고교),서울 송파구 장지동 850,127.133586772745,37.4852225321289
문정역 2번,서울 송파구 문정동 55-6,127.123086945379,37.4863565930224
오금역 4번,서울 송파구 방이동 184-8,127.12595180861,37.5090679325615
오금공원(오주중학교),서울 송파구 오금동 59,127.136497245209,37.5014445301323
방이역 2번,서울 송파구 오금동 51,127.128813137903,37.5023793923832
투구봉어린이공원,서울 송파구 가락동 185,127.13537330853,37.4940350506483
방이역 1번,서울 송파구 송파동 195-9,127.112331955415,37.5000355799567
Sh수협은행 오금동금융센터(아랫말어린이공원),,,
오동나무공원(송파레미니스1단지),서울 송파구 오금동 616,127.13570416178287,37.506896523063865
문정동성당,서울 송파구 문정동 141-1,127.1346905982083,37.48790267731887
보인중학교,서울 송파구 오금동 162,127.138006754263,37.4982279887818
거여역 1번(거여공원),,,
벌말어린이공원,서울 강북구 번동 235,127.039826780912,37.6297103914648
남천초등학교,부산 수영구 남천동 69-27,129.10772274100108,35.14365898266617
거여초등학교,서울 송파구 오금동 108,127.140905632722,37.5050938300334
마천역(마천초등학교),서울 송파구 마천동 183-4,127.151983446209,37.4955798973136
마천공원,서울 송파구 마천동 13-11,127.145812339897,37.5018875060951
천호지구대(천호동자전거거리),,,
개미어린이공원,서울 노원구 공릉동 589-4,127.077826981488,37.620627519084
마천1치안센터,,,
천호역 1번(천호문구완구거리),,,
강동구청(강동구청역 2번),서울 강동구 성내동 320-7,127.12138342217403,37.53062469670706
암사역 3번(천호동자전거거리),,,
암사역 4번(삼성광나루아파트),,,
천호태영아파트,서울 강동구 천호동 566,127.12998349640709,37.5381551145525
천호역 6번,서울 강동구 성내동 49-14,127.12493678499192,37.53794612371779
성내천어린이공원(하니사랑길),서울 강동구 성내동 477-1,127.122667346174,37.528450155517
암사역 2번(서울강동초등학교),,,
선사초등학교,서울 강동구 암사동 186-1,127.128588702605,37.5561225482036
암사역 1번,서울 강동구 암사동 501-2,127.12778664093094,37.55035883761266
둔촌동역 3번(성내3동주민센터),,,
천호공원(해공체육문화센터),서울 강동구 천호동 399-1,127.129759471713,37.5420765102688
성내중학교,서울 강동구 성내동 530,127.129800528886,37.5292065800993
강동역 4번(강풀만화거리),,,
강동구립 천호도서관,서울 강동구 천호동 174-1,127.134106523559,37.5406516788332
암사동성당(효정하나플러스아파트),서울 강동구 암사동 672,127.13426615607541,37.551427438799784
둔촌동역 4번,서울 강동구 성내동 450-39,127.13610926596628,37.52818495067021
강동성심병원,서울 강동구 길동 445,127.13539940825837,37.53603348150811
천일초등학교,경기 수원시 장안구 천천동 570,126.978150142291,37.3009648620545
천호1동주민센터,서울 강동구 천호동 76-2,127.136820957835,37.5449553397982
둔촌동역 1번(한산중학교),,,
강동구립성내도서관,서울 강동구 성내동 385,127.133341328252,37.532860698473
명일역 1번,서울 강동구 명일동 47-19,127.15603034120554,37.55299454888714
천호초등학교,서울 강동구 천호동 224-21,127.13645424963,37.5473956677915
천동초등학교,충남 천안시 동남구 동면 동산리 553,127.347984414738,36.7783635012066
굽은다리역 1번(십자성마을),,,
둔촌2동주민센터,서울 강동구 둔촌동 65,127.141963454032,37.5333480008033
굽은다리역 4번,서울 강동구 명일동 345-12,127.14305469711705,37.54549395743742
둔촌고등학교(둔촌중학교),서울 강동구 둔촌동 19-1,127.146506448862,37.5306754909171
굽은다리역 2번,서울 강동구 천호동 42,127.142852199105,37.5461158914759
중앙보훈병원,서울 강동구 둔촌동 6-2,127.1478738128987,37.530448536566894
길동주민센터(강동도서관),서울 강동구 길동 362,127.143779340133,37.5386472872747
한영중고,서울 강동구 상일동 166,127.158193921252,37.5491417080064
굽은다리역 3번,서울 강동구 길동 390-1,127.14010910170569,37.53758671736264
고덕중학교(고덕2동주민센터),서울 강동구 고덕동 226-4,127.16436597438,37.5605254810724
GS강동자이아파트,서울 강동구 길동 474,127.14982016649486,37.53801268222193
고덕동성당,서울 강동구 고덕동 177,127.169481343504,37.5603452577172
길동신동아아파트,서울 강동구 길동 92,127.14751431512093,37.54150065027357
묘곡초등학교(고덕아이파크아파트),서울 강동구 고덕동 499,127.15524028249118,37.55893045558401
강일동주민센터,서울 강동구 강일동 678,127.17390630538449,37.565042019206615
서촌(경복궁역),서울 종로구 적선동 81-1,126.973691352767,37.5758061234865
상일여고(상일초등학교),서울 강동구 상일동 325-1,127.172144856224,37.5472228902335
종로구청,서울 종로구 중학동 19,126.9790122514521,37.574725995860405
서대문역,서울 종로구 평동 210,126.96663755850754,37.56575193662503
종각역,서울 종로구 종로1가 54,126.98315081716676,37.570227990912244
광화문역,서울 종로구 세종로 1-68,126.97642427981408,37.57164860977568
종로3가역,서울 종로구 종로3가 10-5,126.992153252476,37.570420844523
북촌(안국역),서울 종로구 안국동 73-1,126.98542143228659,37.57650192060523
삼청동,서울 종로구 팔판동 67-1,126.981482777468,37.5820641053666
원남동사거리,서울 종로구 원남동,126.997360075255,37.5759099369174
인사동,서울 종로구 관훈동 30-1,126.985591616819,37.5745467832909
대학로(혜화역),서울 종로구 명륜4가 96-5,127.00194500977393,37.58204391787134
종로5가역,서울 종로구 종로5가 82-1,127.00153834521934,37.57097610838373
종로4가,서울 종로구 종로4가,127.000633898859,37.5705616588662
동대문역,서울 종로구 창신동 492-1,127.01063381083677,37.571669405802616
이화사거리,서울 종로구 연건동,127.002159945298,37.5761478092222
경찰청앞교차로,서울 중구 의주로1가,126.969630614828,37.5621244323259
시청역_8번,서울 중구 태평로2가 113-1,126.976547877605,37.5637514066345
종로6가,서울 종로구 종로6가 69,127.009571946966,37.571141513487
북창동(시청역_6번),서울 중구 태평로2가 113-1,126.97755492134716,37.56478774809793
동묘앞역(동묘),서울 종로구 숭인동 239-9,127.01808924966633,37.572600127753
중림동,서울 중구 남대문로5가 67-4,126.968573895548,37.5557487004694
시청역_1번,서울 중구 태평로2가 353-1,126.976706124671,37.564436195153
회현역,서울 중구 남창동 64-1,126.9784372569283,37.55876114587941
을지로입구역,서울 중구 을지로1가 100-1,126.9821953112953,37.566035517712955
명동역(명동재미로),서울 중구 남산동2가 15-27,126.985852618471,37.5592118648241
서울시청,서울 중구 태평로1가 31,126.978652258823,37.56682420267543
을지로2가,서울 중구 을지로2가 181,126.985013903885,37.5651511309814
롯데백화점(시청광장 지하쇼핑센터),,,
명동(명동거리),서울 중구 명동2가,126.984901336292,37.5620769169639
을지로4가역,서울 중구 을지로4가 267-1,126.997632059113,37.5666405038268
중부경찰서(영화인의거리),,,
중구청(퇴계로4가),,,
충무로역,서울 중구 필동2가 16-2,126.99414960395544,37.56139658395457
을지로3가역,서울 중구 을지로3가 347-3,126.99098443539428,37.56629149790628
퇴계로5가,서울 중구 장충동2가 173-3,127.00165249214974,37.56274280630755
동대문역사문화공원역,서울 중구 을지로7가 112-3,127.00900417014896,37.56566440553802
장충동족발거리(남소영길),,,
용산전자상가(용산역),서울 용산구 한강로3가 40-999,126.964824061815,37.5300763645794
약수역,서울 중구 신당동 369-44,127.010891666957,37.5545053994984
신당역,서울 중구 신당동 99,127.019477533278,37.5656730531732
"숙대입구역(남영역, 남영동)",서울 용산구 갈월동 96-1,126.97133096608212,37.540566672483216
남영동 먹자골목,서울 용산구 남영동 2,126.973236353706,37.5439359573409
신용산역(용산역),서울 용산구 한강로3가 40-999,126.964824061815,37.5300763645794
이태원(이태원역),서울 용산구 이태원동 119-23,126.994333861918,37.5345252050511
삼각지역,서울 용산구 한강로1가 228-1,126.972922951307,37.5344393447708
서울역,서울 중구 봉래동2가 122-11,126.97070335253385,37.55406888733184
금호역,서울 성동구 금호동4가 1470,127.01582916945283,37.548260922874086
한남오거리,서울 용산구 한남동,127.007553219352,37.5333069461662
뚝섬역,서울 성동구 성수동1가 656-745,127.04738727881,37.547241554679
왕십리역(왕십리),서울 성동구 행당동 287-15,127.03461446829401,37.561198841501145
성수역,서울 성동구 성수동2가 300-1,127.056066999327,37.5445888153751
서울숲역,서울 성동구 성수동1가 656-436,127.044746216358,37.543645796605
어린이대공원역,서울 광진구 화양동 164-1,127.07465525507352,37.54796087622509
건대입구역(건대),서울 광진구 화양동 1,127.07741635877292,37.543536094587516
군자역,서울 광진구 능동 275-5,127.0795106156054,37.557151488837924
구의역,서울 광진구 구의동 245-24,127.086180837795,37.5371752725594
아차산역,서울 광진구 능동 256-16,127.08956495447913,37.55224917071854
구삼강변맛길,,,
구의사거리,서울 광진구 구의동,127.085311816265,37.5450650558509
올림픽대교북단,서울 광진구 광장동,127.095871198987,37.5411502223418
청량리역(청량리),서울 동대문구 전농동 620-67,127.04472723023305,37.580037056302906
강변역(테크노마트),서울 광진구 구의동 546-4,127.0956854813862,37.5357209474504
신설동역,서울 동대문구 신설동 76-5,127.024456700382,37.5760299683175
장안동사거리,서울 동대문구 장안동,127.071677561143,37.5723527030962
장한평역(장한평),서울 동대문구 장안동 472-3,127.06370373106944,37.5616038910656
회기역,서울 동대문구 휘경동 317-112,127.058048369273,37.5897962196601
경희대학교(경희대),서울 동대문구 회기동 1-5,127.05173889409078,37.5971656623384
사가정역,서울 중랑구 면목동 495,127.088504554212,37.5809403751459
한성대입구역,서울 성북구 삼선동1가 14,127.00601781685579,37.58842461354086
성북구청,서울 성북구 삼선동5가 411,127.01670064115753,37.589358815718086
상봉역,서울 중랑구 상봉동 100-9,127.08565745176551,37.59690265237782
안암역,서울 성북구 안암동5가 146-1,127.029233420248,37.586307417971
성신여대,서울 성북구 돈암동 173-1,127.022129316251,37.5916680669509
미아사거리,서울 강북구 미아동 14-2,127.030406594109,37.609094989686
미아사거리역,서울 강북구 미아동 66-1,127.03008663628454,37.61327836400571
창동역,서울 도봉구 창동 135-1,127.047644999036,37.6533385121404
마들역,서울 노원구 상계동 650,127.057712619869,37.6652017465321
월곡역,서울 성북구 하월곡동 35-1,127.041460725816,37.6018044172918
미아역,서울 강북구 미아동 194-1,127.026041090189,37.6266544891889
수유역,서울 강북구 수유동 140,127.02550910860451,37.63788539420793
상계백병원,서울 노원구 상계동 761-1,127.06310485277629,37.648574065497726
은행사거리,서울 노원구 중계동,127.076743276848,37.6506706781383
노원역,서울 노원구 상계동 602-5,127.063449137455,37.6563403513278
태릉입구역,서울 노원구 공릉동 616-4,127.075405300578,37.618459513199
등나무근린공원,서울 노원구 중계동 508,127.06718339862914,37.64016383179014
응암역,서울 은평구 신사동 22-15,126.9155399209037,37.5984928632876
공릉역,서울 노원구 공릉동 385-4,127.073033585328,37.6255427648558
본서부병원,서울 은평구 응암동 87-14,126.922601405599,37.6007447760225
불광역,서울 은평구 대조동 13-10,126.930315826401,37.6100477979795
구산역,서울 은평구 구산동 1,126.91725947715172,37.61124669148435
구파발역,서울 은평구 진관동 67-26,126.918852820009,37.6364357889145
"신촌역(신촌역, 신촌로터리)",,,
연신내역,서울 은평구 갈현동 397,126.92110296894133,37.61920414913163
"이화여대(이대역, 이대)",서울 마포구 염리동 8-85,126.94642954546576,37.556814718869
DMC(디지털미디어시티),서울 마포구 상암동 1622,126.89793381953788,37.57677404533607
연희동,인천 서구 심곡동,126.68195282804427,37.543971988648046
월드컵경기장역(월드컵경기장),서울 마포구 성산동 515,126.89724365713197,37.56825003712418
홍제역,서울 서대문구 홍제동 161-1,126.944158007985,37.5887953806088
서교동(홍대),서울 마포구 상수동 72-1,126.925554591431,37.550874837441
충정로역,서울 서대문구 충정로3가 319-1,126.96449207476172,37.55976328822766
연남동(홍대),서울 마포구 상수동 72-1,126.925554591431,37.550874837441
상수역(홍대),서울 마포구 상수동 72-1,126.925554591431,37.550874837441
망원역,서울 마포구 망원동 378,126.910094329982,37.5560826563712
합정역,서울 마포구 서교동 393,126.91445406513526,37.54991315995173
홍대입구역(홍대),서울 마포구 상수동 72-1,126.925554591431,37.550874837441
공덕역(공덕오거리),서울 마포구 공덕동 429-11,126.951564700548,37.5439759088286
서울남부지방법원,서울 양천구 신정동 313-1,126.863619783065,37.5216595841511
마포역,서울 마포구 도화동 160,126.94586257221307,37.53955402908912
목동사거리,서울 강서구 화곡동,126.86372693103,37.5324068516626
등촌역,서울 강서구 등촌동 666-94,126.86557100595411,37.550728980328884
신정네거리역,서울 양천구 신정동 1231,126.852889567642,37.5202231231721
목동역 8번출구,서울 양천구 신정동 1074,126.86398523116384,37.52598661631174
송정역,서울 강서구 공항동 29-5,126.812430347154,37.5611612387718
강서농산물도매시장,서울 강서구 외발산동 427,126.82077657908539,37.55304361317403
김포공항역(김포공항),서울 강서구 공항동 1373-5,126.80278135337612,37.55867678737794
발산역(마곡),서울 강서구 마곡동 727-1496,126.83773640693936,37.558677743241596
오목교역,서울 양천구 목동 406-30,126.875307312696,37.5245340839144
목동신시가지,서울 양천구 목동 925,126.86690650618742,37.52773338214835
화곡역,서울 강서구 화곡동 1089-54,126.840455026335,37.5416507925709
오류동역,서울 구로구 오류동 66-10,126.84480744815397,37.49439720933549
개봉동 현대아파트,서울 구로구 개봉동 481,126.85849463174304,37.49207898790344
디지털단지오거리,서울 금천구 가산동 127-34,126.890012191246,37.4793506589002
마곡역(마곡),서울 강서구 마곡동 769-3,126.82469691791624,37.56022863776301
까치산역,서울 강서구 화곡동 662-5,126.846444264065,37.5322306724471
구로디지털단지,서울 구로구 구로동 810-3,126.901473080039,37.4852605752505
강서구청,서울 강서구 화곡동 980-16,126.849533759513,37.5509646154307
구로디지털단지역,서울 구로구 구로동 810-3,126.901473080039,37.4852605752505
가산디지털단지,서울 금천구 가산동 468-4,126.882661758356,37.4803959660982
구로역,서울 구로구 구로동 585-3,126.88230806229326,37.50334155631282
신도림역,서울 구로구 신도림동 460-26,126.891312500851,37.508908482648
독산동,서울 금천구 독산동 770-4,126.892828210117,37.4549899165436
구로구청,서울 구로구 구로동 435,126.887505314509,37.495433086372
양평역,서울 영등포구 양평동2가 33-79,126.886419282885,37.5255796429707
문래역(문래로데오거리),서울 영등포구 문래동3가,126.896494379543,37.5174618602941
당산2동(영등포우체국),서울 영등포구 당산동4가 93-6,126.89494568601619,37.52966096279484
서울시흥동우체국(홈플러스시흥점),서울 금천구 시흥동 993-2,126.90071955825152,37.4531524360559
구로전화국,서울 관악구 신림동,126.90395838768,37.4798926112553
영등포청과시장교차로,서울 영등포구 영등포동,126.901055659543,37.5205508031947
영등포구청역,서울 영등포구 당산동3가 270-1,126.89667739939,37.5258305311402
당산역,서울 영등포구 당산동6가 323-1,126.902611795523,37.5347843171332
영중로,서울 영등포구 영등포동4가 442,126.90331984149027,37.51742529723954
대림역,서울 구로구 구로동 1204,126.894931036051,37.4933099444417
대림3동사거리,서울 영등포구 대림동,126.897767171282,37.499871758402
문래동주민센터,서울 영등포구 문래동3가 55-16,126.8994856347614,37.517111250497514
영등포역(영등포),서울 영등포구 영등포동 618-496,126.9078782908411,37.515682796141235
국회의사당역(국회의사당),서울 영등포구 여의도동 1,126.91416237338858,37.53190827313679
63빌딩,서울 영등포구 여의도동 60,126.94026158444098,37.519814891570896
보라매역,서울 동작구 대방동 466-51,126.92061230710924,37.49992085496506
한강성심병원,서울 영등포구 영등포동7가 94-200,126.90969265919573,37.52316522406567
보라매공원,서울 동작구 신대방동 722,126.92051756183096,37.49328307697023
여의도역(여의도),서울 영등포구 여의도동 3,126.924397990207,37.5217753947299
총신대학교,서울 동작구 사당동 200-1,126.96707315671416,37.48894434956749
"총신대입구역(이수, 총신대)",서울 동작구 사당동 144-4,126.98167629035197,37.48528852311765
장승배기역,서울 동작구 상도동 26-20,126.939072381356,37.5048990621814
신림역(신림),서울 관악구 신림동 1467-10,126.9297453749671,37.484267135140364
노량진역(노량진),서울 동작구 노량진동 60-11,126.940893179777,37.5135856714992
신대방삼거리역,서울 동작구 대방동 406-10,126.92821094566965,37.499757228908564
사당역(사당),서울 동작구 사당동 1129,126.98155858357366,37.47656223234824
방배동카페골목,서울 서초구 방배동 767-27,126.986109104063,37.4944226421959
서울대입구역,서울 관악구 봉천동 979-2,126.952713197762,37.4812845080678
녹두거리(대학동),서울 관악구 신림동 246-27,126.938066054462,37.4690023808044
사당역 11번(사당역먹자골목),,,
방배동가구거리(사당동가구거리),,,
서래마을카페거리(서래마을),서울 서초구 반포동 126,126.998380593305,37.4983013805091
서울고교교차로,서울 서초구 서초동,127.004486363673,37.4827391035918
내방역,서울 서초구 방배동 874-16,126.993600180589,37.4876585212369
방배역,서울 서초구 방배동 912-14,126.997553345516,37.4814561268152
서초역,서울 서초구 서초동 1748-5,127.007662120039,37.4918499338918
고속터미널(고속터미널역),서울 서초구 반포동 19-3,127.00425245559464,37.505039937971254
교대입구교차로,서울 서초구 서초동,127.010072281718,37.4870311636194
논현역 5번,서울 서초구 잠원동 87,127.01912768160423,37.51656681797132
삼호가든사거리,서울 서초구 반포동,127.01035514847,37.5047989922085
서초3동사거리,서울 서초구 서초동,127.01140605482,37.4840469027876
남부터미널역,서울 서초구 서초동 1748-30,127.01620028391,37.4851996335293
교대역(법원.검찰청),서울 서초구 서초동,127.013587676376,37.4935288784757
신사역,서울 강남구 신사동 667,127.02030856272764,37.51643597531432
양재화물트럭터미널앞,,,
교육개발원입구사거리,서울 서초구 양재동,127.038665375915,37.4781305078075
논현역 4번,서울 서초구 반포동 19-11,127.003818154962,37.5048966929541
신논현역 1번,서울 서초구 서초동 1676-4,127.0180296317,37.4942707138908
양재역,서울 서초구 서초동 1366-9,127.03416413380752,37.48457681195669
포이사거리(삼호물산),서울 서초구 양재동 275-1,127.0442138575,37.4775555198522
가로수길,서울 강남구 신사동 534-19,127.02272940977892,37.520819816124934
"양재시민의숲역(양재동꽃시장, aT센터)",서울 서초구 양재동 232,127.039721825361,37.4662584453955
양재천카페거리,서울 서초구 양재동 96-9,127.040292609639,37.4766739327213
신논현역,서울 강남구 역삼동 800,127.025492036104,37.504811111562
압구정역,서울 강남구 신사동 668,127.02850865895756,37.52649127416921
논현역,서울 강남구 논현동 279-67,127.02165424259898,37.51120000205266
뱅뱅사거리,서울 강남구 도곡동,127.03166068044,37.4895465688273
강남역,서울 강남구 역삼동 858,127.02800140627488,37.49808633653005
강남을지병원,서울 강남구 논현동 59,127.02861907401372,37.51938504004746
도산공원교차로,서울 강남구 신사동,127.033855188279,37.5215388543165
학동역,서울 강남구 논현동 279-67,127.03190190063152,37.51434578734927
역삼역,서울 강남구 역삼동 804,127.03646946847,37.5006744185994
서울세관,서울 강남구 논현동 71,127.03438768893974,37.518410417962016
언주역(차병원),서울 강남구 역삼동 650-9,127.03464815597005,37.50681892340246
성수대교남단,서울 강남구 압구정동,127.033754555012,37.5291721738221
경복아파트교차로,서울 강남구 역삼동 800,127.03856801207992,37.508654857574385
압구정로데오역(압구정로데오),서울 강남구 신사동 668-33,127.039152029523,37.5267558230172
구역삼세무서,서울 강남구 역삼동 806,127.03924558630239,37.49586125410494
학동사거리,서울 강남구 청담동 77,127.039159220575,37.5231986637448
르네상스호텔사거리,서울 강남구 역삼동 804,127.04279570309748,37.50255900235868
매봉역,서울 강남구 도곡동 179-2,127.046711448388,37.4869394661317
도곡1동,서울 강남구 도곡동 산 179-3,127.044110817233,37.4907463224917
강남구청역,서울 강남구 삼성동 111-44,127.0413109462156,37.51721617197854
청담사거리(청담동명품거리),서울 강남구 청담동,127.047417975116,37.5242371955534
개나리아파트,경기 평택시 세교동 559,127.08211601850871,37.0008856926164
"강남구청(청담역_8번, 강남세무서)",,,
선정릉역,서울 강남구 삼성동 111-114,127.043627289129,37.5109326388803
한티역,서울 강남구 대치동 1011-28,127.052909749417,37.4962857047653
삼성중앙역,서울 강남구 삼성동 111-147,127.053043676912,37.5129614511319
도성초등학교,서울 강남구 역삼동 714,127.049054532698,37.5011924464183
선릉역,서울 강남구 삼성동 172-66,127.04896282498558,37.504497373023206
영동대교남단교차로,서울 강남구 청담동 77-4,127.054346432267,37.5250775487636
경기고교사거리(경기고교앞사거리),서울 강남구 청담동,127.047417975116,37.5242371955534
포스코사거리,서울 강남구 대치동,127.056595204405,37.5068365762856
코엑스,서울 강남구 삼성동 159,127.05882784390123,37.51266138067201
대치역,서울 강남구 대치동 317-3,127.063203409529,37.4944966528582
봉은사역,서울 강남구 삼성동 172,127.060233935114,37.5142554489848
대치사거리,서울 강남구 대치동,127.058632600444,37.5030946088049
은마아파트,서울 강남구 대치동 316,127.06532735974666,37.49741836284779
잠실새내역(신천),서울 송파구 잠실동 33,127.086314327913,37.5116263587296
잠실역,서울 송파구 신천동 8,127.10023101886318,37.51331105877401
휘문고교사거리,서울 강남구 대치동,127.065089858274,37.5052103918677
삼성역,서울 강남구 삼성동 172-66,127.06302321147605,37.508822740225305
석촌역(석촌호수),서울 송파구 잠실동 47,127.099112837006,37.5076807262772
방이동먹자골목,서울 송파구 방이동 95-4,127.109220856293,37.5147825360342
수서역,서울 강남구 수서동 214-16,127.10437056849396,37.48549612670822
석촌고분역,서울 송파구 삼전동 157-1,127.0965081858022,37.50246245994369
송파나루역,서울 송파구 방이동 2,127.11266171422027,37.51101671275264
송파사거리(송파역),서울 송파구 석촌동,127.110102416473,37.501976642902
가락시장,서울 송파구 가락동 600,127.110927336635,37.4938884413034
몽촌토성역,서울 송파구 신천동 19,127.11286534895457,37.5178055794687
장지역(가든파이브),서울 송파구 문정동 634,127.12479134707128,37.477790721122545
경찰병원역,서울 송파구 가락동 10-15,127.124482397777,37.4960049150853
가락시장역,서울 송파구 가락동 184-23,127.118262745146,37.4930992522183
문정역,서울 송파구 문정동 119-4,127.122484886901,37.4860310539381
개롱역,서울 송파구 가락동 165-2,127.13507959838425,37.497968278388235
방이역,서울 송파구 방이동 217-2,127.126096046986,37.5087506251989
오금역,서울 송파구 오금동 44-2,127.127953219596,37.5021388575469
천호역,서울 강동구 천호동 455,127.12392845044,37.5385112120297
암사역,서울 강동구 암사동 501,127.12754072968517,37.55015818096496
강동구청역,서울 강동구 성내동 319,127.12044373032,37.5302111983522
둔촌역,서울 강동구 둔촌동 416,127.13621464981398,37.52765684247226
거여역,서울 송파구 거여동 20-14,127.143773841911,37.4933304500736
명일역,서울 강동구 명일동 303-1,127.14404374474,37.5513978958277
길동역,서울 강동구 길동 378,127.140021295948,37.5378264874159
굽은다리역,서울 강동구 명일동 345-12,127.14288387331297,37.54551759022203
세종마을음식문화거리(금천교시장),서울 종로구 내자동 4,126.971839096723,37.5764327883031
고덕역,서울 강동구 고덕동 310,127.15416500963447,37.55504766830918
낙원시장(낙원지하시장(대일상가)),,,
광장시장(광장전통시장),서울 종로구 예지동 2-1,126.999705691588,37.5701111625175
통인시장,서울 종로구 통인동 10-3,126.96994796046572,37.580769707479256
세운상가가동,서울 종로구 장사동 116-4,126.995236793525,37.5691379916808
마전교지하쇼핑센터(구 한일상가),,,
종로신진시장,서울 종로구 종로5가 194-1,127.00504853014945,37.570243501253984
동문시장,제주특별자치도 제주시 일도일동 1148-2,126.52830338722843,33.51278396493313
동대문상가B동,서울 종로구 창신동 436-78,127.011862884789,37.5700601111229
동대문문구완구거리(동대문문구완구시장),,,
동대문상가A동,서울 종로구 창신동 436-79,127.01067206954,37.570067432739
"동대문종합시장(동대문종합시장 신관, 동대문종합시장D동상가)",,,
창신골목시장,서울 종로구 창신동 570-3,127.012080621736,37.5725468358341
동묘시장(동묘벼룩시장),서울 종로구 숭인동 239-9,127.01808924966633,37.572600127753
삼익패션타운(남대문시장),서울 중구 남창동 5,126.978998228366,37.5601622973551
청계천공구상가,서울 종로구 장사동 224-8,126.993154062227,37.5687054113992
인현시장,서울 중구 인현동2가 100,126.99539557469,37.5641104406652
숭례문수입상가(남대문시장),서울 중구 남창동 51-1,126.97622664020462,37.55952656896395
남대문시장(자유상가),서울 중구 회현동1가 202-1,126.979785730846,37.5610273917789
대림상가(청계상가),,,
방산종합시장(방산시장),서울 중구 주교동 19-1,127.000783298778,37.5687380431333
team204(팀204),서울 중구 신당동 204-48,127.0131981771048,37.567712875901336
중부시장(신중부시장),서울 중구 오장동 148-20,127.00035088338967,37.56525209214993
"평화시장(통일상가, 동화상가)",,,
테크노상가(엘리시움),,,
약수시장,서울 성동구 금호동3가 326,127.02271403358449,37.54845261293641
동평화시장,서울 중구 신당동 217-96,127.013026430584,37.5694653314742
동화동 골목형상점가,서울 중구 신당동 282-32,127.01723212023337,37.56185858366069
신당 미래유산 먹거리 골목형상점가,서울 중구 신당동 292-7,127.01523464429941,37.56286527148183
백학시장,서울 중구 신당동 140,127.019694797223,37.5654504710968
청평화시장,서울 중구 신당동 217-91,127.014937154792,37.569465105183
용산용문시장,서울 용산구 용문동 41-44,126.95979622238326,37.53662233404795
이촌종합시장,서울 용산구 이촌동 301-35,126.975045636157,37.5204094106495
후암시장,서울 용산구 후암동 102-2,126.97609377452645,37.55029311763281
서울중앙시장(신중앙시장),,,
황학동주방가구거리상점가,,,
"황학시장(서울중앙시장, 신중앙시장)",,,
만리시장,서울 용산구 서계동 260-1,126.96351044713096,37.55121342278342
이태원시장,서울 용산구 이태원동 56-9,126.990034568595,37.5338293478237
신금호역 골목형상점가,서울 중구 신당동 282-32,127.01723212023337,37.56185858366069
신흥시장,서울 용산구 용산동2가 1-457,126.984990717707,37.5453147633312
금남시장,서울 성동구 금호동3가 326,127.02271403358449,37.54845261293641
보광시장,서울 용산구 보광동 260-8,127.00008259533041,37.527282511592055
무학봉상점가,서울 성동구 하왕십리동 976-15,127.031679509222,37.5608482767528
뚝섬역상점가,서울 성동구 성수동1가 656-853,127.048498393461,37.5470473887944
행당시장상점가,서울 성동구 행당동 292-4,127.0331767987139,37.560618111318185
왕십리도선동상점가,서울 성동구 도선동 265,127.033227743621,37.5631967493178
마장축산물시장,서울 성동구 마장동 439-1,127.04127141025155,37.57068418982381
성수역 골목형상점가,,,
"한양대앞상점가(한양시장, 왕십리맛골목)",,,
뚝도시장,서울 성동구 성수동2가 335-16,127.05482635396496,37.53779946404449
노룬산시장(노룬산골목시장),서울 광진구 자양동 816-79,127.0647236217369,37.5368709290181
영동교골목시장,서울 광진구 자양동 816-79,127.06375931318348,37.537834622887665
성동용답상가시장,서울 성동구 용답동 13-22,127.05336707057647,37.56362724787349
능동로골목시장,서울 광진구 중곡동 229-15,127.08113147618097,37.56358170034751
자양골목전통시장(자양골목시장),서울 광진구 자양동 816-79,127.0647236217369,37.5368709290181
"중곡제일시장(중곡제일골목시장, 광성시장)",서울 광진구 중곡동 229-15,127.08113147618097,37.56358170034751
신성시장(신성골목시장),서울 광진구 중곡동 79-7,127.088481891224,37.557957805944
조양시장,서울 광진구 자양동 6-20,127.067409288948,37.5389390239216
한아름시장,서울 광진구 화양동 10-1,127.069952556124,37.543453355017
화양제일골목시장,서울 광진구 중곡동 229-15,127.08113147618097,37.56358170034751
경동시장,서울 동대문구 제기동 1019,127.03913636936471,37.57903713704342
면곡골목시장,서울 광진구 중곡동 566-3,127.081506533848,37.5712326964711
청량리수산시장,서울 동대문구 용두동 47-7,127.04050566071791,37.57804377968464
서울약령시장,서울 동대문구 제기동 1126-5,127.036824325922,37.5783981751522
청량종합도매시장,서울 동대문구 제기동 846-34,127.040367497627,37.5821451508696
청량리종합시장,서울 동대문구 제기동 849,127.04100457029242,37.57949600980205
경동광성상가(경동시장),서울 동대문구 제기동 1028,127.03894438095296,37.57993368948162
청량리전통시장,서울 동대문구 청량리동 773,127.04360452116852,37.58061951833087
청량리농수산물시장,서울 동대문구 제기동 899-1,127.040384967453,37.5809522293759
답십리 건축자재시장,서울 동대문구 답십리동 530-11,127.053318873909,37.5674673146033
동서시장,대구 동구 신암동 105-10,128.633790008082,35.8867337318252
청량리청과물시장,서울 동대문구 제기동 854-2,127.04213573949934,37.579857810991975
전농로터리시장,서울 동대문구 전농동 295-52,127.057079239321,37.5780369293849
답십리시장,서울 동대문구 답십리동 66-17,127.05868296176868,37.573163565121305
동부시장,강원특별자치도 춘천시 운교동 183,127.73417316977903,37.87726428481941
이문제일시장,서울 동대문구 이문동 250-1,127.062467319374,37.6044152478613
회기시장,서울 동대문구 회기동 346,127.0547269269253,37.590600590442705
답십리현대시장,서울 동대문구 답십리동 19-70,127.0586158647949,37.566991780748495
전곡시장,서울 동대문구 장안동 108-5,127.06847224083,37.577814632232
태능엔터피아(태릉시장),,,
중랑동부시장(중랑교종합상가),서울 중랑구 상봉동 129-9,127.077114239104,37.5929495871615
이경시장,서울 동대문구 휘경동 139-27,127.064846470286,37.595076096804
장미제일시장(중화동제일시장),서울 중랑구 중화동 309-1,127.076185552875,37.604970308266
중랑동부시장,서울 중랑구 면목동 184-13,127.07715865299036,37.59209902191365
면목골목시장(면목시장),서울 중랑구 면목동 294-5,127.078227393895,37.5898025908227
신아타운,서울 중랑구 신내동 666,127.09486107152789,37.60654882359764
묵1동도깨비시장,서울 노원구 공릉동 584-5,127.0759131838009,37.62223342424176
우림골목시장,서울 중랑구 망우동 463-1,127.098252841871,37.5970099681642
동성타워프라자,서울 중랑구 신내동 786,127.097266186943,37.6080353003354
"동원전통종합시장(동원시장, 동원전통시장 상점가)",,,
사가정시장,서울 중랑구 면목동 472-45,127.08940143514243,37.581143323812064
돈암시장(돈암제일시장),서울 성북구 동소문동5가 59-2,127.0159345745288,37.59153752095047
정릉시장,서울 성북구 정릉동 980,127.00951216588793,37.60840566256222
길음시장,서울 성북구 길음동 535-8,127.0219355599507,37.60277642406756
정릉골 골목형상점가,,,
꿈의숲 장곡 골목형상점가,서울 성북구 장위동 215-6,127.046847271737,37.617339061343
정릉아리랑시장,서울 성북구 정릉동 445-4,127.011224851724,37.6028130673774
장위전통시장,서울 성북구 장위동 68-185,127.05133148312079,37.61070051399762
밤나무골시장,서울 성북구 하월곡동 76,127.035507595728,37.6091260007847
장미원골목시장,서울 강북구 수유동 605-248,127.01385084236395,37.6446726531194
새석관시장,서울 성북구 상월곡동 23-168,127.05030744483818,37.60704834403369
삼양골목시장(삼양시장),,,
"솔샘시장(미아6,7동골목시장)",,,
돌곶이시장(석관황금시장),서울 성북구 석관동 282-8,127.062229438144,37.609778964642494
수유재래시장,서울 강북구 수유동 55-7,127.02376795939124,37.63154191894609
동북프라자,서울 강북구 미아동 701-3,127.018639958523,37.6202408614148
수유프라자,서울 강북구 수유동 63,127.023487044385,37.6316717171788
우이골목시장(우이시장),서울 강북구 수유동 270-175,127.020105853286,37.6460700799067
수유중앙골목시장(수유중앙시장),서울 강북구 수유동 32-2,127.021554587061,37.6403828118754
숭인시장,서울 강북구 미아동 60-5,127.029121667591,37.613315546618
강북북부골목시장,서울 강북구 번동 411,127.029674317416,37.6359518069942
"수유전통시장(수유시장, 수유골목시장)",서울 강북구 수유동 54-5,127.023445986404,37.6307995708701
방천골목시장,서울 강북구 미아동 52-26,127.033864751447,37.6126835886791
강북종합전통시장(강북종합골목시장),,,
쌍문역둘리상점가,,,
강북북부시장,서울 강북구 번동 413-3,127.030381424099,37.6363048132568
방학동도깨비시장,서울 도봉구 방학동 726-80,127.0351012728891,37.66507369343768
창동신창시장,서울 도봉구 창동 578-47,127.03745719002,37.6394346028627
백운시장,서울 도봉구 쌍문동 495-9,127.015598103219,37.6557112804272
신도봉시장,서울 도봉구 도봉동 611,127.041231284916,37.6702685649638
쌍문역동측상점가,,,
쌍문시장(쌍문역골목시장),,,
창동역상점가,서울 도봉구 창동 657-125,127.03593153994,37.6475493403873
창동골목시장,서울 도봉구 창동 555-1,127.03928644029064,37.63838075667123
상계중앙시장,서울 노원구 상계동 389-666,127.07027789790456,37.65964758873
오!도봉거리 상점가,,,
상계주공1단지(가)상가,서울 노원구 상계동 767-5,127.05967568477138,37.646818932330206
공릉동 도깨비시장,서울 노원구 공릉동 584-5,127.0759131838009,37.62223342424176
증산종합시장,서울 은평구 증산동 184-9,126.9050598105,37.5814687626598
수일시장,서울 은평구 수색동 205,126.895204243684,37.582563240308
증산골목시장,서울 은평구 응암동 609-1,126.917588043944,37.587525638733
응암오거리상점가,서울 은평구 응암동 98-70,126.923370288623,37.599669494975
"대림골목시장(대림시장, 양지시장)",,,
연신내상점가(연빛거리),,,
응암시장(신응암시장),서울 은평구 응암동 427-1,126.91888944132,37.594388495081
제일시장,경기 여주시 하동 180-11,127.631609970515,37.2985390759406
불광먹자골목 골목형상점가,서울 은평구 응암동 98-70,126.923370288623,37.599669494975
연서시장,서울 은평구 불광동 310-11,126.92144492152157,37.61932060467856
대조시장,서울 은평구 대조동 12-3,126.927770024237,37.6098480496794
신촌 상인회(신촌상점가),,,
모래내시장(서중시장),,,
연희사러가,서울 서대문구 연희동 131-1,126.9296608103891,37.5671547653381
유진상가,서울 서대문구 홍제동 294-46,126.942444046882,37.5914146426955
백련시장,서울 서대문구 남가좌동 345-4,126.92309918997123,37.57700034978307
이대 앞 스타트업 상점가,,,
"이화여대 3,5,7길 상점가",,,
인왕시장(홍제골목형상점가),서울 서대문구 홍제동 299-49,126.94347175577646,37.59044567185361
포방터시장,서울 서대문구 홍은동 9-195,126.94972077600207,37.598771859227675
영천시장,서울 서대문구 영천동 341-10,126.96266831410814,37.56970341646108
아현가구거리상점가,,,
망원월드컵시장,서울 마포구 망원동 517,126.90633024775065,37.558719651524044
서교시장,서울 마포구 망원동 414-8,126.90626589039096,37.555885964724716
홍대소상공인상점가,,,
상암동상점가,서울 마포구 망원동 435-14,126.903750833185,37.5605429962324
마포농수산물시장,서울 마포구 성산동 533-1,126.89849571788136,37.5648030101604
망원시장,서울 마포구 망원동 414-8,126.90626589039096,37.555885964724716
용강동 상점가,서울 마포구 용강동 40-5,126.94398631114,37.5398820190025
홍대 걷고싶은 거리,서울 마포구 서교동 348-40,126.924263894094,37.5559412279911
공덕시장,서울 마포구 공덕동 256-10,126.95337467321116,37.544816368668684
마포시장,서울 마포구 공덕동 256-30,126.953786578945,37.54479490661
동진시장,제주특별자치도 제주시 일도일동 1102-18,126.527434922052,33.5117726767556
아현시장,서울 마포구 아현동 327-7,126.954965276572,37.5567462033211
도화동 상점가,서울 마포구 도화동 169-3,126.94952650404026,37.5409999547469
"신월7동 골목시장(약수시장, 우성상가)",,,
신월3동 골목시장,서울 양천구 신월동 783,126.82590388299,37.5337555026178
신영시장,서울 양천구 신월동 114-18,126.836024765935,37.5330239610442
월정로시장,서울 강서구 화곡동 362-1,126.83928163307199,37.534798903271806
경창시장,서울 양천구 신월동 463-3,126.84238351644974,37.52480738243618
서서울 골목형상점가,서울 양천구 신월동 117-8,126.83665326257,37.5312048114959
신곡종합시장(신월6동 골목시장),,,
신정1동 골목시장(신정제일시장),,,
신정3동 골목시장,서울 구로구 고척동 50-48,126.862612366723,37.5034905814793
신정2동 골목시장(오목교중앙시장),,,
목동깨비시장(목3동시장),서울 양천구 목동 607-53,126.86431075661295,37.54862370879533
방신전통시장,서울 강서구 방화동 769-24,126.812090256829,37.5721924767397
목사랑시장(목4동시장),서울 양천구 목동 829,126.866427554129,37.5381114656543
목2동시장,서울 양천구 목동 526,126.873882007804,37.5459799784668
공항시장,서울 강서구 방화동 619-36,126.80920373439662,37.563301338446095
대원종합시장,,,
화곡중앙시장,서울 강서구 화곡동 362-1,126.83928163307199,37.534798903271806
송화벽화시장(송화골목시장),서울 강서구 내발산동 720-4,126.83458870850858,37.54904622333609
신월중앙시장,서울 강서구 화곡동 929-1,126.842429786007,37.5280879895276
화곡본동시장,서울 강서구 화곡동 98-154,126.843533944782,37.5432550860872
등마루시장,서울 강서구 등촌동 637-10,126.86028867834165,37.55664780605386
까치산시장,서울 강서구 화곡동 663-15,126.847495563038,37.5315544824016
개봉프라자(고척근린시장),,,
개봉중앙시장,서울 구로구 개봉동 324-1,126.853872852533,37.4916516906054
"남부골목시장(남부화곡시장, 남부시장)",서울 강서구 화곡동 830-1,126.859014967729,37.5328734447248
오류시장,서울 구로구 오류동 38-7,126.843604358072,37.496521996796
고척근린시장,서울 구로구 고척동 253-122,126.84979238723972,37.502138785518426
고척골목시장상점가(그라운드 고척),,,
고척프라자,서울 구로구 고척동 50-48,126.862833465028,37.5038007841004
남구로시장,서울 구로구 구로동 741-21,126.88726031443463,37.48990787918405
구로시장,서울 구로구 구로동 734-17,126.88561438027251,37.489626984832654
독산동 우시장,서울 금천구 독산동 293-5,126.896288415097,37.4668250895607
독산동 맛나는거리상점가(독산동 맛나는거리),,,
가리봉시장,서울 구로구 가리봉동 123-53,126.889343895583,37.4817323018085
대명여울빛거리시장(대명시장),서울 금천구 시흥동 885,126.902029379767,37.454071661236
남문시장,대구 중구 남산동 611-2,128.591989230533,35.8610791407845
은행나무시장,서울 금천구 시흥동 1000-121,126.909704584758,37.4512594056793
비단길현대시장(현대시장),서울 금천구 시흥동 848-31,126.90487738542274,37.4577266926762
선유도역 골목형상점가,서울 영등포구 양평동4가 93-1,126.894214456483,37.5371404172086
영등포유통상가,서울 영등포구 당산동2가 30-2,126.8940032811,37.5224620178503
대림중앙시장,서울 영등포구 대림동 1072-30,126.89952023594192,37.491297483226475
영일시장,서울 영등포구 문래동3가 10,126.900717641897,37.5161211889482
대림중앙 골목형상점가,서울 영등포구 대림동 1058-4,126.897920073568,37.4913934202109
동남상가,경기 화성시 정남면 발산리 723-1,126.982626153161,37.1614150231064
영등포청과시장(조광시장),서울 영등포구 당산동1가 75-1,126.899946299431,37.5211337183144
영등포역지하도상점가,서울 영등포구 영등포동 618-496,126.90695272001224,37.515928044563736
영신상가(제일상가),서울 영등포구 영등포동5가 18-1,126.90637654962553,37.51988749777941
우리시장,서울 영등포구 대림동 906-133,126.903976929673,37.497206387315
삼구시장(로타리상가),,,
영등포전통시장,서울 영등포구 영등포동2가 30-1,126.90807791194665,37.519851893042606
신동시장,전북특별자치도 익산시 신동 786-21,126.958349210811,35.9617816786059
남서울상가,서울 강남구 대치동 921-5,127.051893898997,37.4990396308823
영진시장A동,서울 영등포구 신길동 2365,126.91598779045,37.5001780473718
영등포시장기계공구상가,서울 영등포구 영등포동2가 167-1,126.91043264464741,37.51925363428642
성대전통시장(성대시장),서울 동작구 상도동 324-68,126.93085773571458,37.49921279804766
대신시장,서울 영등포구 신길동 116-15,126.917504935258,37.5109299086236
상도약수골목형상점가,,,
신대방1동골목상권,,,
노량진중앙시장,,,
상도도깨비 골목형상점가,서울 동작구 상도동 196-94,126.937160067399,37.5020139419006
신노량진시장(기능상실),,,
본동인정시장(기능상실),,,
만양로상점가,,,
강남시장(동작구 강남시장),서울 동작구 상도동 488,126.953603539989,37.4968506704133
남성역골목시장,서울 동작구 사당동 267-4,126.97233776657204,37.48299183702963
남성사계시장(남성시장),서울 동작구 사당동 86-9,126.98188247854831,37.48829161501821
상도전통시장,서울 동작구 상도동 324-68,126.93085773571458,37.49921279804766
흑석시장,서울 동작구 흑석동 54-368,126.962894140287,37.5069055744368
신림중앙시장(조원동 펭귄시장),,,
사당시장,서울 동작구 사당동 318-8,126.975329477142,37.4828771704731
사당1동먹자골목상점가(사당1동먹자골목),서울 동작구 사당동 1101,126.980712476692,37.4783551062786
강남골목시장,서울 관악구 신림동 1652,126.904849143824,37.4826864587869
미성동 도깨비시장 골목형상점가,,,
관악신사시장,서울 관악구 신림동 494,126.916849029998,37.4863536067363
신림종합시장,서울 강남구 역삼동 824-11,127.03038375615196,37.497129779969654
조원동 펭귄시장(신림중앙시장),,,
신원시장,서울 관악구 신림동 1595-4,126.926766602033,37.4825831435359
우림시장,서울 중랑구 망우동 463-1,127.098252841871,37.5970099681642
삼성동 시장(삼성동시장),서울 관악구 신림동 808-495,126.932105513833,37.4700190504373
신림현대종합상가,서울 관악구 신림동 1694,126.933806161115,37.4746259794819
난곡 골목형상점가,서울 관악구 신림동 702-15,126.920598036471,37.4695992154276
봉일시장,서울 관악구 봉천동 951-25,126.938445661039,37.4858082073049
서원동상점가,서울 관악구 신림동 96-3,126.937436542953,37.4756190682212
관악종합시장(신원시장),,,
봉천제일종합시장,서울 관악구 봉천동 921-10,126.944142173,37.4810699308413
신신림시장(삼성동시장),서울 관악구 신림동 390-1,126.932240389547,37.4708804938733
봉천중앙시장,서울 관악구 봉천동 32-2,126.954276333191,37.4839665252318
관악중부시장,서울 관악구 봉천동 33-3,126.95553338886091,37.484358042691156
영림시장,서울 관악구 봉천동 921-10,126.944142173,37.4810699308413
남부종합시장,서울 서초구 방배동 767-1,126.984783665816,37.4950459757047
봉천현대시장,서울 관악구 봉천동 502-4,126.946563373045,37.4866302730771
영동전통시장,서울 강남구 논현동 140,127.02366486128717,37.509885050791176
인헌시장(원당종합시장),서울 관악구 봉천동 1638-20,126.965890239084,37.474405334586
논현종합시장,서울 강남구 논현동 227-4,127.034759345958,37.5100174577595
양재시장,서울 서초구 양재동 1-7,127.037985626243,37.4842792133506
강남언주로,서울 강남구 역삼동 675-3,127.041307593687,37.5049760288127
강남시장(강남구 강남시장),서울 강남구 신사동 510-11,127.020890571349,37.5185901730166
청담삼익시장,서울 강남구 청담동 134-20,127.05769300261032,37.52247747058278
신사상가,서울 강남구 압구정동 454,127.0283886783293,37.53229465438849
도곡시장,서울 강남구 역삼동 805-36,127.05212804503,37.4974897969693
새마을시장,서울 송파구 잠실동 278,127.086365832899,37.5092080256331
방이시장,서울 송파구 방이동 1-1,127.113632180173,37.5117726264435
문정동 로데오거리 상점가(문정동 로데오거리),,,
강남개포시장,서울 강남구 개포동 186-19,127.067976957752,37.4886843078813
마천중앙시장,서울 송파구 마천동 140-2,127.150423566591,37.4981659784072
석촌시장,서울 송파구 석촌동 275-5,127.107806866186,37.500562379475
풍납시장,서울 송파구 풍납동 474-18,127.12158632771066,37.53713872099328
암사종합시장,서울 강동구 암사동 501-17,127.128819574465,37.5508604719985
마천시장,서울 송파구 마천동 140-2,127.150423566591,37.4981659784072
로데오거리상점가,,,
장신구 특화거리 상점가,,,
고분다리전통시장,서울 강동구 천호동 397-99,127.131778499113,37.5422905141771
길동복조리시장,서울 강동구 길동 360-4,127.143757554733,37.5390870015258
성내전통시장,서울 강동구 성내동 144-16,127.1278153159704,37.53401288106075
"평화시장(남평화시장, 제일평화시장, 신평화패션타운)",,,
둔촌역전통시장,서울 강동구 성내동 428-9,127.13520628794903,37.52745617689004
동대문패션타운 관광특구,서울 중구 신당동 213-67,127.01282716149097,37.569193252641526
종로·청계 관광특구,,,
명일전통시장,서울 강동구 명일동 324-20,127.144977394741,37.5496560257032
잠실 관광특구,,,
고덕 골목형상점가,,,
이태원 관광특구,서울 용산구 한남동 737-50,126.997388675434,37.5349073364554
명동 남대문 북창동 다동 무교동 관광특구,,,
옥정중학교,서울 성동구 옥수동 227,127.012229512773,37.5415921541117
강남 마이스 관광특구,,,
상계3동4동주민센터,서울 노원구 상계동 37-7,127.083231747068,37.6729133046886
당산역 13번,서울 영등포구 당산동6가 227-1,126.9015104705931,37.53426803149242
성동구립금호도서관,서울 성동구 금호동1가 688,127.024906752488,37.5541248558247
길상사,서울 성북구 성북동 323,126.994401452213,37.5989608321893
석관시장,서울 성북구 석관동 270-1,127.060296622376,37.6089429489769
방배역 1번,서울 서초구 방배동 984-1,126.99803273241925,37.48124890370491
도림시장,서울 영등포구 도림동 176-9,126.898445838766,37.5097942110217
문래역 3번,서울 영등포구 문래동3가 68-1,126.89470949997008,37.519008205730024
배꽃어린이공원,경기 평택시 소사동 688,127.130000879851,36.9920699696328
본마을노인복지센터(서초구립내곡도서관),,,
